{"type":"FeatureCollection","features":[{"type":"Feature","properties":{"kode":"0101","navn":"København"},"geometry":{"type":"Point","coordinates":[12.4977,55.7075]}},{"type":"Feature","properties":{"kode":"0147","navn":"Frederiksberg"},"geometry":{"type":"Point","coordinates":[12.5243,55.6821]}},{"type":"Feature","properties":{"kode":"0151","navn":"Ballerup"},"geometry":{"type":"Point","coordinates":[12.3736,55.7262]}},{"type":"Feature","properties":{"kode":"0153","navn":"Brøndby"},"geometry":{"type":"Point","coordinates":[12.4117,55.6339]}},{"type":"Feature","properties":{"kode":"0155","navn":"Dragør"},"geometry":{"type":"Point","coordinates":[12.6403,55.5885]}},{"type":"Feature","properties":{"kode":"0157","navn":"Gentofte"},"geometry":{"type":"Point","coordinates":[12.5509,55.7506]}},{"type":"Feature","properties":{"kode":"0159","navn":"Gladsaxe"},"geometry":{"type":"Point","coordinates":[12.4754,55.7427]}},{"type":"Feature","properties":{"kode":"0161","navn":"Glostrup"},"geometry":{"type":"Point","coordinates":[12.4081,55.6989]}},{"type":"Feature","properties":{"kode":"0163","navn":"Herlev"},"geometry":{"type":"Point","coordinates":[12.426,55.7336]}},{"type":"Feature","properties":{"kode":"0165","navn":"Albertslund"},"geometry":{"type":"Point","coordinates":[12.343,55.6721]}},{"type":"Feature","properties":{"kode":"0167","navn":"Hvidovre"},"geometry":{"type":"Point","coordinates":[12.4663,55.632]}},{"type":"Feature","properties":{"kode":"0169","navn":"Høje-Taastrup"},"geometry":{"type":"Point","coordinates":[12.254,55.663]}},{"type":"Feature","properties":{"kode":"0173","navn":"Lyngby-Taarbæk"},"geometry":{"type":"Point","coordinates":[12.5581,55.7909]}},{"type":"Feature","properties":{"kode":"0175","navn":"Rødovre"},"geometry":{"type":"Point","coordinates":[12.4508,55.6804]}},{"type":"Feature","properties":{"kode":"0183","navn":"Ishøj"},"geometry":{"type":"Point","coordinates":[12.3349,55.6213]}},{"type":"Feature","properties":{"kode":"0185","navn":"Tårnby"},"geometry":{"type":"Point","coordinates":[12.5497,55.5956]}},{"type":"Feature","properties":{"kode":"0187","navn":"Vallensbæk"},"geometry":{"type":"Point","coordinates":[12.3731,55.6328]}},{"type":"Feature","properties":{"kode":"0190","navn":"Furesø"},"geometry":{"type":"Point","coordinates":[12.3753,55.7882]}},{"type":"Feature","properties":{"kode":"0201","navn":"Allerød"},"geometry":{"type":"Point","coordinates":[12.3171,55.8558]}},{"type":"Feature","properties":{"kode":"0210","navn":"Fredensborg"},"geometry":{"type":"Point","coordinates":[12.4474,55.9437]}},{"type":"Feature","properties":{"kode":"0217","navn":"Helsingør"},"geometry":{"type":"Point","coordinates":[12.4899,56.0476]}},{"type":"Feature","properties":{"kode":"0219","navn":"Hillerød"},"geometry":{"type":"Point","coordinates":[12.2211,55.9243]}},{"type":"Feature","properties":{"kode":"0223","navn":"Hørsholm"},"geometry":{"type":"Point","coordinates":[12.5049,55.8886]}},{"type":"Feature","properties":{"kode":"0230","navn":"Rudersdal"},"geometry":{"type":"Point","coordinates":[12.4944,55.8314]}},{"type":"Feature","properties":{"kode":"0240","navn":"Egedal"},"geometry":{"type":"Point","coordinates":[12.2109,55.7841]}},{"type":"Feature","properties":{"kode":"0250","navn":"Frederikssund"},"geometry":{"type":"Point","coordinates":[11.9574,55.7813]}},{"type":"Feature","properties":{"kode":"0253","navn":"Greve"},"geometry":{"type":"Point","coordinates":[12.2506,55.5877]}},{"type":"Feature","properties":{"kode":"0259","navn":"Køge"},"geometry":{"type":"Point","coordinates":[12.0673,55.457]}},{"type":"Feature","properties":{"kode":"0260","navn":"Halsnæs"},"geometry":{"type":"Point","coordinates":[12.0019,55.9977]}},{"type":"Feature","properties":{"kode":"0265","navn":"Roskilde"},"geometry":{"type":"Point","coordinates":[12.1015,55.6202]}},{"type":"Feature","properties":{"kode":"0269","navn":"Solrød"},"geometry":{"type":"Point","coordinates":[12.1779,55.5337]}},{"type":"Feature","properties":{"kode":"0270","navn":"Gribskov"},"geometry":{"type":"Point","coordinates":[12.2885,56.0643]}},{"type":"Feature","properties":{"kode":"0306","navn":"Odsherred"},"geometry":{"type":"Point","coordinates":[11.5784,55.8328]}},{"type":"Feature","properties":{"kode":"0316","navn":"Holbæk"},"geometry":{"type":"Point","coordinates":[11.5493,55.6744]}},{"type":"Feature","properties":{"kode":"0320","navn":"Faxe"},"geometry":{"type":"Point","coordinates":[12.087,55.2788]}},{"type":"Feature","properties":{"kode":"0326","navn":"Kalundborg"},"geometry":{"type":"Point","coordinates":[11.2249,55.6593]}},{"type":"Feature","properties":{"kode":"0329","navn":"Ringsted"},"geometry":{"type":"Point","coordinates":[11.819,55.455]}},{"type":"Feature","properties":{"kode":"0330","navn":"Slagelse"},"geometry":{"type":"Point","coordinates":[11.3405,55.3651]}},{"type":"Feature","properties":{"kode":"0336","navn":"Stevns"},"geometry":{"type":"Point","coordinates":[12.3498,55.3256]}},{"type":"Feature","properties":{"kode":"0340","navn":"Sorø"},"geometry":{"type":"Point","coordinates":[11.6005,55.426]}},{"type":"Feature","properties":{"kode":"0350","navn":"Lejre"},"geometry":{"type":"Point","coordinates":[11.9174,55.605]}},{"type":"Feature","properties":{"kode":"0360","navn":"Lolland"},"geometry":{"type":"Point","coordinates":[11.3058,54.7962]}},{"type":"Feature","properties":{"kode":"0370","navn":"Næstved"},"geometry":{"type":"Point","coordinates":[11.645,55.2896]}},{"type":"Feature","properties":{"kode":"0376","navn":"Guldborgsund"},"geometry":{"type":"Point","coordinates":[11.9569,54.8292]}},{"type":"Feature","properties":{"kode":"0390","navn":"Vordingborg"},"geometry":{"type":"Point","coordinates":[11.9643,55.0645]}},{"type":"Feature","properties":{"kode":"0400","navn":"Bornholm"},"geometry":{"type":"Point","coordinates":[14.8752,55.1311]}},{"type":"Feature","properties":{"kode":"0410","navn":"Middelfart"},"geometry":{"type":"Point","coordinates":[9.9029,55.4537]}},{"type":"Feature","properties":{"kode":"0420","navn":"Assens"},"geometry":{"type":"Point","coordinates":[10.04,55.2957]}},{"type":"Feature","properties":{"kode":"0430","navn":"Faaborg-Midtfyn"},"geometry":{"type":"Point","coordinates":[10.3576,55.2149]}},{"type":"Feature","properties":{"kode":"0440","navn":"Kerteminde"},"geometry":{"type":"Point","coordinates":[10.5728,55.3942]}},{"type":"Feature","properties":{"kode":"0450","navn":"Nyborg"},"geometry":{"type":"Point","coordinates":[10.6736,55.2767]}},{"type":"Feature","properties":{"kode":"0461","navn":"Odense"},"geometry":{"type":"Point","coordinates":[10.3356,55.3669]}},{"type":"Feature","properties":{"kode":"0479","navn":"Svendborg"},"geometry":{"type":"Point","coordinates":[10.5206,55.0937]}},{"type":"Feature","properties":{"kode":"0480","navn":"Nordfyns"},"geometry":{"type":"Point","coordinates":[10.1599,55.5073]}},{"type":"Feature","properties":{"kode":"0482","navn":"Langeland"},"geometry":{"type":"Point","coordinates":[10.7646,54.9222]}},{"type":"Feature","properties":{"kode":"0492","navn":"Ærø"},"geometry":{"type":"Point","coordinates":[10.3902,54.8648]}},{"type":"Feature","properties":{"kode":"0510","navn":"Haderslev"},"geometry":{"type":"Point","coordinates":[9.3002,55.2419]}},{"type":"Feature","properties":{"kode":"0530","navn":"Billund"},"geometry":{"type":"Point","coordinates":[9.0157,55.6968]}},{"type":"Feature","properties":{"kode":"0540","navn":"Sønderborg"},"geometry":{"type":"Point","coordinates":[9.9473,54.9428]}},{"type":"Feature","properties":{"kode":"0550","navn":"Tønder"},"geometry":{"type":"Point","coordinates":[8.8787,55.0745]}},{"type":"Feature","properties":{"kode":"0561","navn":"Esbjerg"},"geometry":{"type":"Point","coordinates":[8.7572,55.3926]}},{"type":"Feature","properties":{"kode":"0563","navn":"Fanø"},"geometry":{"type":"Point","coordinates":[8.3768,55.4446]}},{"type":"Feature","properties":{"kode":"0573","navn":"Varde"},"geometry":{"type":"Point","coordinates":[8.6099,55.6867]}},{"type":"Feature","properties":{"kode":"0575","navn":"Vejen"},"geometry":{"type":"Point","coordinates":[9.0497,55.491]}},{"type":"Feature","properties":{"kode":"0580","navn":"Aabenraa"},"geometry":{"type":"Point","coordinates":[9.2792,54.9575]}},{"type":"Feature","properties":{"kode":"0607","navn":"Fredericia"},"geometry":{"type":"Point","coordinates":[9.6565,55.565]}},{"type":"Feature","properties":{"kode":"0615","navn":"Horsens"},"geometry":{"type":"Point","coordinates":[9.8044,55.904]}},{"type":"Feature","properties":{"kode":"0621","navn":"Kolding"},"geometry":{"type":"Point","coordinates":[9.402,55.4229]}},{"type":"Feature","properties":{"kode":"0630","navn":"Vejle"},"geometry":{"type":"Point","coordinates":[9.3686,55.7191]}},{"type":"Feature","properties":{"kode":"0657","navn":"Herning"},"geometry":{"type":"Point","coordinates":[8.8928,56.2136]}},{"type":"Feature","properties":{"kode":"0661","navn":"Holstebro"},"geometry":{"type":"Point","coordinates":[8.825,56.4284]}},{"type":"Feature","properties":{"kode":"0665","navn":"Lemvig"},"geometry":{"type":"Point","coordinates":[8.2945,56.4742]}},{"type":"Feature","properties":{"kode":"0671","navn":"Struer"},"geometry":{"type":"Point","coordinates":[8.5825,56.4589]}},{"type":"Feature","properties":{"kode":"0706","navn":"Syddjurs"},"geometry":{"type":"Point","coordinates":[10.5088,56.3544]}},{"type":"Feature","properties":{"kode":"0707","navn":"Norddjurs"},"geometry":{"type":"Point","coordinates":[10.7567,56.4657]}},{"type":"Feature","properties":{"kode":"0710","navn":"Favrskov"},"geometry":{"type":"Point","coordinates":[9.9183,56.2908]}},{"type":"Feature","properties":{"kode":"0727","navn":"Odder"},"geometry":{"type":"Point","coordinates":[10.156,55.9448]}},{"type":"Feature","properties":{"kode":"0730","navn":"Randers"},"geometry":{"type":"Point","coordinates":[10.0788,56.5368]}},{"type":"Feature","properties":{"kode":"0740","navn":"Silkeborg"},"geometry":{"type":"Point","coordinates":[9.5716,56.2107]}},{"type":"Feature","properties":{"kode":"0741","navn":"Samsø"},"geometry":{"type":"Point","coordinates":[10.5835,55.8234]}},{"type":"Feature","properties":{"kode":"0746","navn":"Skanderborg"},"geometry":{"type":"Point","coordinates":[9.8486,56.0902]}},{"type":"Feature","properties":{"kode":"0751","navn":"Aarhus"},"geometry":{"type":"Point","coordinates":[10.1001,56.1567]}},{"type":"Feature","properties":{"kode":"0756","navn":"Ikast-Brande"},"geometry":{"type":"Point","coordinates":[9.2303,56.1404]}},{"type":"Feature","properties":{"kode":"0760","navn":"Ringkøbing-Skjern"},"geometry":{"type":"Point","coordinates":[8.5409,56.0209]}},{"type":"Feature","properties":{"kode":"0766","navn":"Hedensted"},"geometry":{"type":"Point","coordinates":[9.82,55.7368]}},{"type":"Feature","properties":{"kode":"0773","navn":"Morsø"},"geometry":{"type":"Point","coordinates":[8.7084,56.7513]}},{"type":"Feature","properties":{"kode":"0779","navn":"Skive"},"geometry":{"type":"Point","coordinates":[8.9152,56.6215]}},{"type":"Feature","properties":{"kode":"0787","navn":"Thisted"},"geometry":{"type":"Point","coordinates":[8.4677,56.8927]}},{"type":"Feature","properties":{"kode":"0791","navn":"Viborg"},"geometry":{"type":"Point","coordinates":[9.5451,56.4712]}},{"type":"Feature","properties":{"kode":"0810","navn":"Brønderslev"},"geometry":{"type":"Point","coordinates":[10.2649,57.1768]}},{"type":"Feature","properties":{"kode":"0813","navn":"Frederikshavn"},"geometry":{"type":"Point","coordinates":[10.4102,57.3239]}},{"type":"Feature","properties":{"kode":"0820","navn":"Vesthimmerlands"},"geometry":{"type":"Point","coordinates":[9.3865,56.8122]}},{"type":"Feature","properties":{"kode":"0825","navn":"Læsø"},"geometry":{"type":"Point","coordinates":[11.0129,57.2651]}},{"type":"Feature","properties":{"kode":"0840","navn":"Rebild"},"geometry":{"type":"Point","coordinates":[10.0033,56.8463]}},{"type":"Feature","properties":{"kode":"0846","navn":"Mariagerfjord"},"geometry":{"type":"Point","coordinates":[9.9341,56.7347]}},{"type":"Feature","properties":{"kode":"0849","navn":"Jammerbugt"},"geometry":{"type":"Point","coordinates":[9.6221,57.1653]}},{"type":"Feature","properties":{"kode":"0851","navn":"Aalborg"},"geometry":{"type":"Point","coordinates":[9.9437,56.9786]}},{"type":"Feature","properties":{"kode":"0860","navn":"Hjørring"},"geometry":{"type":"Point","coordinates":[10.0789,57.4677]}}]}