{"type":"FeatureCollection","features":[{"type":"Feature","properties":{"navn":"Tyskland"},"geometry":{"type":"MultiPolygon","coordinates":[[[[6.6882,52.5],[6.68753,52.50814],[6.68402,52.52599],[6.67172,52.54168],[6.68825,52.54258],[6.74375,52.55971],[6.71099,52.57664],[6.70396,52.58307],[6.70365,52.59139],[6.7082,52.59969],[6.71016,52.60865],[6.70179,52.61912],[6.71908,52.62676],[6.73704,52.6347],[6.77052,52.64103],[6.8654,52.64196],[6.91842,52.63219],[6.96772,52.63666],[6.98281,52.63278],[7.01847,52.62599],[7.03666,52.64738],[7.04399,52.68263],[7.0533,52.79058],[7.06198,52.82401],[7.07215,52.84132],[7.07986,52.85442],[7.16192,52.93264],[7.18362,52.96612],[7.19282,52.99801],[7.19437,53.03384],[7.18507,53.10544],[7.18135,53.11418],[7.17649,53.11939],[7.17267,53.12575],[7.17194,53.13771],[7.17443,53.14578],[7.18858,53.16779],[7.19541,53.185],[7.19851,53.20058],[7.19747,53.21662],[7.19459,53.24502],[7.20444,53.24828],[7.21583,53.2556],[7.22462,53.26293],[7.23357,53.27363],[7.23699,53.28555],[7.2295,53.29658],[7.25473,53.31953],[7.26832,53.32368],[7.29152,53.32392],[7.31316,53.3205],[7.34767,53.30736],[7.36655,53.3028],[7.34254,53.32404],[7.30291,53.33275],[7.07521,53.33759],[7.03826,53.34858],[7.02361,53.37641],[7.02329,53.45051],[7.02768,53.46735],[7.04705,53.49771],[7.05144,53.5126],[7.05974,53.52172],[7.07936,53.52155],[7.11964,53.5163],[7.12501,53.52436],[7.13453,53.52741],[7.14178,53.53718],[7.13999,53.54979],[7.13111,53.55695],[7.1019,53.56574],[7.08888,53.57372],[7.08676,53.58686],[7.10092,53.59789],[7.13315,53.61127],[7.16944,53.63548],[7.18898,53.6435],[7.22609,53.66649],[7.30502,53.6848],[7.45883,53.69514],[7.46957,53.69074],[7.48024,53.68203],[7.50392,53.67866],[7.65138,53.69697],[7.95143,53.72191],[8.03142,53.70808],[8.03142,53.70063],[8.02491,53.67255],[8.05291,53.6363],[8.09409,53.60472],[8.12762,53.59077],[8.12762,53.58462],[8.11915,53.57193],[8.13461,53.56745],[8.15675,53.56367],[8.16798,53.55321],[8.16489,53.53522],[8.15545,53.52603],[8.1338,53.5163],[8.11573,53.51073],[8.07635,53.50861],[8.05877,53.50202],[8.077,53.4687],[8.08619,53.45612],[8.09978,53.44741],[8.11248,53.45108],[8.12387,53.45401],[8.14064,53.4536],[8.15235,53.44977],[8.1714,53.43659],[8.17856,53.43374],[8.1867,53.42951],[8.19484,53.42011],[8.20533,53.41071],[8.21974,53.40644],[8.2365,53.40672],[8.24871,53.40839],[8.25945,53.4123],[8.27174,53.4195],[8.29282,53.4405],[8.31512,53.47492],[8.32049,53.50922],[8.29152,53.52936],[8.25221,53.5231],[8.23121,53.52521],[8.23317,53.53986],[8.24171,53.5563],[8.24887,53.59028],[8.25734,53.60444],[8.27068,53.61286],[8.28761,53.61689],[8.32936,53.61811],[8.34848,53.61286],[8.36329,53.60057],[8.3755,53.5869],[8.38771,53.57714],[8.42807,53.56477],[8.51344,53.55476],[8.55209,53.54361],[8.55209,53.5362],[8.52817,53.52391],[8.5062,53.50796],[8.49,53.4864],[8.4839,53.45734],[8.48504,53.40119],[8.4909,53.37645],[8.50441,53.35806],[8.50734,53.3828],[8.49676,53.44526],[8.49757,53.47476],[8.51287,53.49649],[8.53582,53.50617],[8.55665,53.51822],[8.56577,53.5467],[8.5608,53.5517],[8.53517,53.59077],[8.52752,53.59663],[8.5171,53.61018],[8.50831,53.62515],[8.50123,53.64419],[8.48707,53.66694],[8.4839,53.68358],[8.4861,53.70043],[8.4922,53.71516],[8.52963,53.7707],[8.55616,53.83096],[8.57325,53.85765],[8.58758,53.87043],[8.60711,53.88154],[8.62924,53.88939],[8.65187,53.89248],[8.6727,53.89159],[8.68458,53.8885],[8.70916,53.87198],[8.74464,53.85415],[8.78248,53.84248],[8.86069,53.831],[8.90358,53.83173],[8.97625,53.84243],[9.01629,53.84052],[9.035,53.85358],[9.11451,53.86514],[9.19361,53.86469],[9.2107,53.87198],[9.22429,53.86591],[9.24073,53.86416],[9.27467,53.86514],[9.28338,53.86164],[9.30535,53.84455],[9.40268,53.74242],[9.44288,53.7143],[9.47096,53.70063],[9.48471,53.69009],[9.49838,53.65986],[9.56707,53.5996],[9.58237,53.5913],[9.60092,53.58633],[9.62477,53.58462],[9.63722,53.581],[9.69662,53.55663],[9.76401,53.54768],[9.81902,53.54035],[9.83204,53.54361],[9.81959,53.55663],[9.78207,53.56973],[9.69239,53.57591],[9.65577,53.58462],[9.58367,53.61245],[9.55079,53.63459],[9.53907,53.66649],[9.53614,53.69375],[9.53224,53.71117],[9.52223,53.71662],[9.47527,53.73216],[9.46022,53.73542],[9.4358,53.74868],[9.41245,53.77875],[9.39666,53.81102],[9.39519,53.831],[9.35873,53.83955],[9.29558,53.87189],[9.25782,53.88557],[9.22047,53.89077],[9.09344,53.89248],[9.05543,53.9029],[9.02996,53.90713],[9.01832,53.90274],[9.00782,53.89248],[8.98463,53.89704],[8.94947,53.91291],[8.91603,53.93741],[8.83334,54.03644],[8.87184,54.04694],[8.89064,54.0478],[8.91456,54.04389],[8.95387,54.02831],[8.97535,54.02408],[8.99724,54.03022],[9.00489,54.04116],[9.01303,54.06098],[9.01857,54.08242],[9.01832,54.09789],[9.00668,54.10814],[8.98813,54.11787],[8.97446,54.12808],[8.97731,54.13947],[8.97731,54.1457],[8.95289,54.15009],[8.91798,54.14631],[8.88543,54.13703],[8.86744,54.12519],[8.86069,54.12519],[8.83334,54.15314],[8.81568,54.17561],[8.81284,54.18049],[8.82097,54.20051],[8.83627,54.21776],[8.84669,54.23355],[8.83961,54.24873],[8.83961,54.25556],[8.8519,54.26105],[8.89422,54.26822],[8.91147,54.26919],[8.92205,54.27424],[8.93751,54.28669],[8.95314,54.30256],[8.96315,54.31761],[8.94028,54.31501],[8.9026,54.29584],[8.88111,54.29027],[8.88307,54.29361],[8.88592,54.30073],[8.88795,54.30394],[8.8576,54.30183],[8.80543,54.29243],[8.77467,54.29027],[8.73894,54.29389],[8.72348,54.29027],[8.6902,54.27147],[8.67848,54.26919],[8.65187,54.27485],[8.62338,54.29011],[8.60271,54.31208],[8.59986,54.33808],[8.61402,54.34838],[8.64137,54.35566],[8.67205,54.35928],[8.69557,54.35859],[8.69557,54.36542],[8.67758,54.36791],[8.66383,54.37556],[8.65065,54.378],[8.63478,54.36542],[8.62623,54.37641],[8.62916,54.38768],[8.63844,54.39814],[8.64845,54.4064],[8.66977,54.40082],[8.75082,54.4138],[8.86069,54.4138],[8.88608,54.41779],[8.90724,54.42552],[8.94947,54.44733],[8.98805,54.45844],[9.00473,54.46589],[9.01149,54.48212],[9.01157,54.50633],[8.9861,54.52928],[8.90447,54.58063],[8.89283,54.59125],[8.88795,54.60187],[8.87875,54.60651],[8.85817,54.60615],[8.83709,54.60269],[8.82586,54.59813],[8.81902,54.60562],[8.85328,54.61929],[8.81837,54.67365],[8.80543,54.68757],[8.7767,54.69798],[8.72267,54.72553],[8.68873,54.7353],[8.68873,54.74217],[8.69435,54.76024],[8.68133,54.78059],[8.66188,54.80061],[8.64845,54.81786],[8.64275,54.84418],[8.64723,54.86738],[8.66078,54.89631],[8.69588,54.88998],[8.73278,54.88905],[8.80089,54.90383],[8.82425,54.9059],[8.90414,54.89794],[8.98269,54.87934],[9.19477,54.8504],[9.21151,54.84182],[9.21606,54.83175],[9.21905,54.81779],[9.22639,54.80591],[9.24407,54.80177],[9.31703,54.80162],[9.33202,54.80322],[9.34173,54.80906],[9.356,54.81133],[9.36695,54.81702],[9.38504,54.81939],[9.40519,54.80839],[9.42214,54.80725],[9.43692,54.81014],[9.4375,54.81041],[9.45143,54.81037],[9.511,54.82783],[9.52996,54.8415],[9.55437,54.84711],[9.56691,54.86018],[9.57993,54.86628],[9.58318,54.83027],[9.6316,54.81989],[9.69304,54.81802],[9.73463,54.80732],[9.75213,54.79963],[9.77809,54.79316],[9.80177,54.78339],[9.81219,54.76606],[9.82374,54.75674],[9.84986,54.75935],[9.89536,54.76948],[9.89145,54.79027],[9.91505,54.79121],[9.94752,54.77953],[9.97047,54.76264],[9.98414,54.7285],[9.99049,54.72053],[9.99952,54.71296],[10.01824,54.70124],[10.00538,54.6955],[9.9922,54.69648],[9.97983,54.69977],[9.97047,54.70124],[9.97104,54.69904],[9.9463,54.68765],[9.94313,54.68757],[9.9367,54.685],[9.93238,54.68525],[9.92994,54.68309],[9.92945,54.6739],[9.9441,54.67333],[9.97022,54.67792],[9.99635,54.67878],[10.0114,54.66706],[10.02215,54.67243],[10.03354,54.67292],[10.03907,54.66682],[10.03191,54.65278],[10.03696,54.6389],[10.03761,54.61909],[10.03191,54.5777],[10.02687,54.55996],[10.02003,54.54584],[10.01043,54.53433],[9.99781,54.52367],[9.96559,54.50617],[9.9253,54.49311],[9.88201,54.48485],[9.8401,54.48212],[9.8401,54.47529],[9.88331,54.4621],[10.12469,54.49575],[10.1434,54.49185],[10.20387,54.46101],[10.18393,54.44937],[10.18385,54.43842],[10.19174,54.42617],[10.19703,54.4101],[10.19125,54.39672],[10.17709,54.38426],[10.15903,54.37531],[10.14178,54.37226],[10.14438,54.37002],[10.1478,54.36831],[10.14829,54.36518],[10.14178,54.35859],[10.15252,54.35179],[10.15553,54.34341],[10.15162,54.33397],[10.14178,54.32441],[10.16375,54.32917],[10.18035,54.34113],[10.20387,54.37226],[10.21713,54.40542],[10.22438,54.4138],[10.23439,54.41771],[10.27215,54.42007],[10.28582,54.42475],[10.29249,54.43016],[10.29762,54.43574],[10.3069,54.44111],[10.31837,54.44331],[10.36085,54.44111],[10.38282,54.43476],[10.44337,54.4064],[10.60109,54.36542],[10.6902,54.31623],[10.73129,54.31021],[10.77711,54.31513],[10.8108,54.32738],[10.86793,54.35859],[10.90089,54.37104],[10.93531,54.37954],[11.01881,54.38589],[11.01881,54.3791],[11.00082,54.37857],[10.97584,54.3784],[10.99318,54.37385],[11.01051,54.37718],[11.03395,54.36762],[11.10418,54.39289],[11.13551,54.38589],[11.0984,54.36152],[11.08774,54.35175],[11.0818,54.35464],[11.06658,54.35859],[11.0774,54.34223],[11.0866,54.30244],[11.09449,54.28352],[11.08709,54.2709],[11.08774,54.25389],[11.09449,54.22508],[11.09018,54.20799],[11.08058,54.19888],[11.07097,54.19257],[11.06658,54.18391],[10.95045,54.13947],[10.91033,54.1092],[10.89283,54.10253],[10.85239,54.09431],[10.84457,54.09447],[10.83611,54.08999],[10.82936,54.09284],[10.82228,54.09736],[10.81332,54.09789],[10.80543,54.09488],[10.80144,54.09223],[10.76287,54.05683],[10.75262,54.05012],[10.75262,54.04389],[10.76588,54.02436],[10.78045,54.00996],[10.79965,54.00056],[10.82692,53.99543],[10.86557,53.99779],[10.8755,53.99543],[10.88258,53.98505],[10.88356,53.97313],[10.88738,53.96394],[10.90211,53.96137],[10.90602,53.96121],[10.91765,53.96076],[10.92262,53.96137],[10.9354,53.96727],[10.96469,53.98542],[10.98121,53.98924],[11.00026,53.9916],[11.05348,54.00849],[11.17506,54.01801],[11.18385,54.01602],[11.19077,54.01032],[11.19728,53.99624],[11.20436,53.98924],[11.23992,53.98347],[11.24537,53.97842],[11.24073,53.95563],[11.24293,53.94522],[11.25563,53.94086],[11.28541,53.93968],[11.29371,53.94086],[11.33416,53.96137],[11.34181,53.95832],[11.35206,53.94416],[11.35825,53.94086],[11.39991,53.94086],[11.4004,53.93773],[11.43873,53.90913],[11.4463,53.90616],[11.45769,53.90616],[11.459,53.91669],[11.46909,53.93277],[11.47682,53.9527],[11.47242,53.96882],[11.47983,53.97614],[11.48951,53.98062],[11.4979,53.98184],[11.49594,53.98631],[11.4935,53.99763],[11.49171,54.00235],[11.52589,54.02277],[11.52589,54.03022],[11.51905,54.03022],[11.51905,54.03644],[11.54461,54.03018],[11.55323,54.03022],[11.5735,54.03905],[11.59132,54.06562],[11.60475,54.07123],[11.6128,54.0729],[11.6194,54.0773],[11.62452,54.08365],[11.62892,54.09105],[11.62957,54.09602],[11.62208,54.09956],[11.62208,54.10468],[11.62526,54.10981],[11.62941,54.11323],[11.63315,54.11591],[11.65789,54.14224],[11.68971,54.15522],[11.72877,54.15852],[11.81227,54.14981],[12.05063,54.17992],[12.08815,54.19408],[12.09327,54.16543],[12.08953,54.13764],[12.09165,54.114],[12.115,54.09789],[12.10532,54.11001],[12.10035,54.13597],[12.09506,54.1457],[12.10548,54.15738],[12.13429,54.16698],[12.14283,54.18049],[12.1316,54.18114],[12.12086,54.18],[12.11061,54.17744],[12.10133,54.17365],[12.1089,54.18301],[12.14283,54.20917],[12.1631,54.21992],[12.18686,54.24335],[12.20094,54.24873],[12.21404,54.25096],[12.2894,54.27509],[12.32732,54.29377],[12.34213,54.30394],[12.37818,54.34492],[12.43832,54.39582],[12.44484,54.40546],[12.4861,54.44733],[12.50196,54.47358],[12.51344,54.48225],[12.53387,54.48827],[12.53387,54.48212],[12.52703,54.48212],[12.54835,54.46206],[12.59148,54.45173],[12.8191,54.45173],[12.85662,54.44111],[12.87965,54.4488],[12.90838,54.44465],[12.92115,54.4335],[12.89633,54.42007],[12.87078,54.41682],[12.76368,54.42219],[12.72096,54.43159],[12.69459,54.43366],[12.68678,54.43163],[12.67612,54.42255],[12.67042,54.42007],[12.65008,54.42007],[12.6242,54.42292],[12.61451,54.41975],[12.60841,54.4064],[12.60222,54.4138],[12.59693,54.41193],[12.58806,54.40746],[12.58172,54.4064],[12.58351,54.39785],[12.58766,54.39403],[12.59401,54.39277],[12.60222,54.39208],[12.59864,54.39155],[12.59588,54.39151],[12.59441,54.3902],[12.59474,54.38589],[12.57553,54.392],[12.55405,54.39082],[12.53598,54.38373],[12.52703,54.37226],[12.51075,54.38426],[12.49098,54.39008],[12.45476,54.39208],[12.43849,54.38752],[12.42498,54.37592],[12.41847,54.36066],[12.424,54.34492],[12.40968,54.34663],[12.40382,54.34809],[12.39674,54.35175],[12.3899,54.34492],[12.3965,54.33295],[12.39161,54.32111],[12.37908,54.31245],[12.36256,54.31021],[12.36964,54.29658],[12.37794,54.28588],[12.38014,54.27709],[12.36883,54.26919],[12.41245,54.25141],[12.43678,54.24771],[12.45818,54.25556],[12.44264,54.25519],[12.43084,54.25861],[12.41033,54.26919],[12.41684,54.28095],[12.42628,54.28962],[12.45143,54.30394],[12.45729,54.3063],[12.46827,54.30834],[12.47242,54.31021],[12.4756,54.31513],[12.47657,54.32779],[12.47869,54.33186],[12.49562,54.34028],[12.56056,54.35859],[12.54705,54.36449],[12.54078,54.36542],[12.54078,54.37226],[12.55934,54.37629],[12.56609,54.37592],[12.57423,54.37226],[12.57423,54.3791],[12.59295,54.36933],[12.62273,54.37393],[12.67726,54.39208],[12.67506,54.39541],[12.67237,54.40298],[12.67042,54.4064],[12.68084,54.41088],[12.69256,54.41364],[12.70485,54.41462],[12.71754,54.4138],[12.71754,54.4064],[12.70249,54.40412],[12.69239,54.39619],[12.68653,54.38475],[12.68409,54.37226],[12.69663,54.38496],[12.70118,54.39167],[12.7046,54.3996],[12.71355,54.39008],[12.72381,54.38125],[12.73504,54.37816],[12.7461,54.38589],[12.75782,54.37979],[12.76857,54.38007],[12.77833,54.38475],[12.78712,54.39208],[12.78989,54.38435],[12.79469,54.37714],[12.80096,54.37075],[12.81804,54.35798],[12.82179,54.35615],[12.82537,54.35725],[12.83546,54.35859],[12.85467,54.35786],[12.86476,54.35957],[12.87599,54.36542],[12.88453,54.37348],[12.89487,54.38972],[12.90382,54.3996],[12.92937,54.41437],[12.96909,54.42939],[13.0088,54.43806],[13.03419,54.43366],[13.0215,54.42646],[13.02101,54.41454],[13.02858,54.40184],[13.04038,54.39208],[13.08367,54.37897],[13.09555,54.37226],[13.07667,54.35253],[13.08074,54.33714],[13.10922,54.31021],[13.11207,54.2993],[13.11207,54.28848],[13.11492,54.28002],[13.12599,54.2766],[13.17067,54.2766],[13.17067,54.26919],[13.16131,54.26903],[13.15463,54.26732],[13.1434,54.26301],[13.17612,54.26484],[13.22836,54.24738],[13.26319,54.2425],[13.28883,54.23428],[13.32179,54.19453],[13.34889,54.18049],[13.33334,54.17402],[13.32154,54.16682],[13.34653,54.16694],[13.3838,54.17813],[13.40349,54.17365],[13.39568,54.16193],[13.39088,54.15729],[13.38299,54.15314],[13.39479,54.14891],[13.40211,54.15131],[13.4087,54.15461],[13.41774,54.15314],[13.42319,54.1481],[13.43767,54.12519],[13.45037,54.11042],[13.4651,54.09846],[13.48357,54.0913],[13.50709,54.09105],[13.50709,54.09789],[13.49887,54.10248],[13.48748,54.11392],[13.47926,54.11835],[13.47926,54.12519],[13.60271,54.13947],[13.63234,54.14753],[13.68344,54.16804],[13.71193,54.17365],[13.71648,54.16844],[13.71469,54.16405],[13.70826,54.16088],[13.69825,54.15933],[13.69825,54.15314],[13.72877,54.14387],[13.80812,54.10468],[13.80812,54.09789],[13.79371,54.0832],[13.78549,54.06391],[13.7732,54.04633],[13.7461,54.03644],[13.75815,54.03099],[13.78712,54.0091],[13.79762,53.99893],[13.80348,53.99632],[13.8318,53.98924],[13.83863,53.98631],[13.84311,53.97956],[13.8462,53.97224],[13.84913,53.9676],[13.85027,53.96402],[13.84897,53.95946],[13.84864,53.95555],[13.85255,53.95384],[13.86687,53.95466],[13.87013,53.95384],[13.8755,53.95124],[13.8816,53.94904],[13.88795,53.94758],[13.89357,53.94709],[13.90602,53.94306],[13.90756,53.93354],[13.90138,53.92231],[13.89015,53.91291],[13.81853,53.878],[13.80812,53.86514],[13.81707,53.85293],[13.83579,53.84748],[13.85434,53.84492],[13.8628,53.84125],[13.86915,53.83031],[13.8838,53.81769],[13.89991,53.80915],[13.91066,53.81049],[13.98422,53.77399],[14.01735,53.76952],[14.03354,53.75751],[14.03745,53.75528],[14.06153,53.75642],[14.06886,53.75528],[14.09401,53.74632],[14.10613,53.74335],[14.18653,53.73981],[14.21469,53.74486],[14.22657,53.75869],[14.23414,53.76179],[14.25017,53.75996],[14.2645,53.75161],[14.26743,53.73542],[14.25953,53.72797],[14.21274,53.70808],[14.22535,53.70376],[14.24,53.70075],[14.2562,53.69945],[14.2639,53.69998],[14.26386,53.69988],[14.2651,53.67176],[14.26097,53.65621],[14.27606,53.63662],[14.29704,53.59776],[14.2989,53.58789],[14.29621,53.55131],[14.29694,53.52914],[14.30417,53.50852],[14.32846,53.48609],[14.3389,53.46521],[14.35988,53.44408],[14.37032,53.3923],[14.39126,53.33402],[14.39802,53.31522],[14.39957,53.30675],[14.40019,53.28861],[14.40329,53.27879],[14.40938,53.27243],[14.42468,53.26466],[14.42861,53.25908],[14.44163,53.25184],[14.41559,53.22099],[14.40825,53.2144],[14.39771,53.21099],[14.38778,53.20208],[14.38065,53.18986],[14.37786,53.17655],[14.38148,53.1603],[14.38747,53.14614],[14.38954,53.13167],[14.35957,53.07506],[14.35678,53.06668],[14.34334,53.04862],[14.31265,53.02922],[14.25373,53.00088],[14.19286,52.98165],[14.14449,52.95992],[14.14449,52.95369],[14.15049,52.94364],[14.16268,52.90817],[14.16495,52.89566],[14.16082,52.87675],[14.15049,52.86463],[14.12392,52.85065],[14.1354,52.8366],[14.15276,52.82833],[14.17374,52.82435],[14.19596,52.82337],[14.21601,52.81799],[14.24867,52.79458],[14.27596,52.78572],[14.3822,52.73815],[14.39771,52.72712],[14.43192,52.68609],[14.44235,52.67996],[14.46137,52.67456],[14.4901,52.65064],[14.54994,52.63619],[14.60797,52.59646],[14.61371,52.59253],[14.64482,52.57692],[14.61681,52.54103],[14.60906,52.5178],[14.62767,52.50742],[14.6309,52.5],[6.6882,52.5]]],[[[14.21005,53.93846],[14.19307,53.91149],[14.1848,53.90813],[14.17529,53.90648],[14.19276,53.89377],[14.20082,53.87816],[14.08741,53.87043],[14.06512,53.87238],[14.04835,53.87938],[14.02508,53.86384],[13.99586,53.85375],[13.93849,53.84467],[13.87526,53.84406],[13.8401,53.85029],[13.82179,53.86514],[13.83473,53.86799],[13.85548,53.87739],[13.88771,53.88154],[13.92237,53.89338],[13.93165,53.89932],[13.93898,53.92821],[13.90187,53.96979],[13.90447,53.99543],[13.95485,53.9936],[13.97267,53.98924],[13.96583,53.98184],[13.96827,53.97626],[13.9603,53.95673],[13.959,53.94086],[13.97462,53.95734],[13.98748,53.96141],[14.02784,53.96137],[14.02263,53.95897],[14.01857,53.95637],[14.01588,53.9527],[14.01433,53.94709],[14.04835,53.94086],[14.04029,53.95384],[14.05307,53.97842],[14.05128,54.00507],[14.03745,54.02172],[14.01433,54.01602],[14.0062,54.03229],[13.99529,54.04572],[13.9817,54.05634],[13.96583,54.06379],[13.94606,54.0666],[13.92612,54.06403],[13.91586,54.05638],[13.92482,54.04389],[13.92482,54.03644],[13.91627,54.03364],[13.90724,54.02749],[13.89991,54.01972],[13.89698,54.01227],[13.89088,54.01016],[13.85597,54.00235],[13.85808,54.01577],[13.86557,54.02408],[13.87355,54.02998],[13.87631,54.03644],[13.8711,54.04865],[13.86362,54.04999],[13.85499,54.04633],[13.82301,54.03791],[13.80828,54.02631],[13.7942,54.01813],[13.7741,54.02277],[13.78207,54.04214],[13.80926,54.0751],[13.81495,54.10126],[13.80616,54.11665],[13.76531,54.14191],[13.75294,54.15314],[13.76222,54.16446],[13.7776,54.17402],[13.79615,54.17829],[13.81495,54.17365],[13.82374,54.16397],[13.84409,54.13129],[13.85597,54.11835],[13.8825,54.10244],[13.94842,54.07978],[13.98618,54.07123],[14.01661,54.06],[14.19239,53.94611],[14.20948,53.93863],[14.21005,53.93846]]],[[[6.79811,53.60444],[6.77565,53.60248],[6.7409,53.59345],[6.72242,53.59077],[6.72242,53.58462],[6.73357,53.58202],[6.7422,53.57836],[6.74952,53.57241],[6.75652,53.56289],[6.74757,53.56599],[6.73463,53.57518],[6.72609,53.57714],[6.71599,53.57608],[6.70118,53.57144],[6.69508,53.5703],[6.67709,53.57563],[6.66334,53.58735],[6.65952,53.59911],[6.67115,53.60444],[6.74733,53.61835],[6.78468,53.62006],[6.79811,53.60444]]],[[[6.87379,53.67276],[6.91082,53.68366],[7.04705,53.69416],[7.08546,53.687],[6.87379,53.67276]]],[[[7.13315,53.70808],[7.17897,53.72407],[7.23292,53.72944],[7.3462,53.72797],[7.34669,53.72321],[7.34506,53.72207],[7.3423,53.72211],[7.29575,53.71101],[7.1736,53.7014],[7.13315,53.70808]]],[[[7.36655,53.72797],[7.38307,53.73485],[7.40349,53.73672],[7.42262,53.7342],[7.43556,53.72797],[7.43238,53.72407],[7.42905,53.72248],[7.42124,53.72114],[7.3812,53.7285],[7.36655,53.72797]]],[[[8.12013,53.72114],[8.13266,53.73404],[8.15235,53.73916],[8.17482,53.73701],[8.19597,53.72797],[8.18165,53.72797],[8.17172,53.72557],[8.15577,53.71638],[8.15089,53.7143],[8.14226,53.71564],[8.13673,53.71796],[8.13071,53.71845],[8.12013,53.7143],[8.12013,53.72114]]],[[[7.51743,53.76211],[7.60662,53.7626],[7.62672,53.75528],[7.62721,53.75092],[7.62574,53.74995],[7.6233,53.74999],[7.62062,53.74909],[7.5477,53.75043],[7.51393,53.74551],[7.51124,53.72797],[7.48194,53.72712],[7.47299,53.73188],[7.46957,53.74535],[7.47462,53.75682],[7.48699,53.76142],[7.51743,53.76211]]],[[[7.6609,53.76211],[7.68629,53.78099],[7.72828,53.78657],[7.81284,53.78315],[7.81284,53.77635],[7.7986,53.77635],[7.77622,53.76797],[7.74822,53.76093],[7.71949,53.75991],[7.695,53.76952],[7.68588,53.76179],[7.67709,53.7578],[7.66863,53.75788],[7.6609,53.76211]]],[[[7.87379,53.77635],[7.8545,53.78457],[7.8589,53.79092],[7.87672,53.79487],[7.89763,53.79629],[7.91407,53.79536],[7.92897,53.79255],[7.95558,53.7829],[7.94606,53.784],[7.93531,53.78315],[7.89324,53.78897],[7.87526,53.7884],[7.87379,53.77635]]],[[[11.37566,53.98184],[11.39039,54.00458],[11.42661,54.02294],[11.46803,54.03095],[11.4979,54.02277],[11.46827,53.97069],[11.45769,53.96137],[11.44532,53.96113],[11.44451,53.96809],[11.45143,53.98554],[11.44703,53.99714],[11.43873,53.99726],[11.43328,53.98876],[11.43776,53.975],[11.42311,53.96772],[11.40707,53.96821],[11.39096,53.97394],[11.37566,53.98184]]],[[[11.52849,54.0751],[11.52858,54.07746],[11.53395,54.08487],[11.6019,54.10415],[11.6159,54.11213],[11.59897,54.09805],[11.55275,54.07307],[11.53956,54.05695],[11.53395,54.05695],[11.52849,54.0751]]],[[[8.96315,54.52367],[8.95851,54.52245],[8.95631,54.51944],[8.95582,54.51496],[8.95688,54.50943],[8.93849,54.49909],[8.92579,54.48676],[8.91131,54.47549],[8.88795,54.46845],[8.84449,54.4665],[8.8239,54.47085],[8.81284,54.48212],[8.82374,54.48554],[8.82553,54.4912],[8.82097,54.49726],[8.81284,54.50194],[8.84449,54.51972],[8.87965,54.52912],[8.9192,54.53046],[8.96315,54.52367]]],[[[11.25563,54.47871],[11.31422,54.4138],[11.18849,54.42617],[11.17018,54.42007],[11.17465,54.416],[11.17905,54.41421],[11.13885,54.41267],[11.11264,54.41523],[11.10133,54.42349],[11.10328,54.44383],[11.09864,54.45165],[11.08432,54.45478],[11.05812,54.45527],[11.04737,54.45327],[11.03989,54.44733],[11.03248,54.44733],[11.02915,54.45466],[11.02573,54.45881],[11.02036,54.45897],[11.00847,54.45466],[11.00571,54.46845],[11.0337,54.50886],[11.07293,54.5312],[11.12127,54.53596],[11.20655,54.51447],[11.23211,54.50165],[11.24,54.49555],[11.25563,54.47871]]],[[[13.1434,54.59813],[13.11891,54.58641],[13.11313,54.57005],[13.11215,54.55069],[13.10255,54.52993],[13.09523,54.52436],[13.08107,54.51716],[13.07504,54.50943],[13.07146,54.49966],[13.06959,54.48965],[13.06821,54.46845],[13.06137,54.46845],[13.06137,54.48212],[13.06422,54.50511],[13.09555,54.57079],[13.10231,54.5961],[13.10963,54.6031],[13.12599,54.60562],[13.13982,54.60602],[13.15105,54.60493],[13.15724,54.59907],[13.15707,54.58796],[13.15651,54.58906],[13.15366,54.59113],[13.14967,54.59138],[13.14967,54.5777],[13.1434,54.5777],[13.1434,54.59813]]],[[[13.69825,54.39208],[13.72486,54.36359],[13.74195,54.35049],[13.76645,54.34492],[13.7531,54.3393],[13.74008,54.32982],[13.73015,54.31684],[13.72625,54.30052],[13.72625,54.28465],[13.72316,54.27839],[13.71274,54.279],[13.69093,54.28352],[13.70265,54.28352],[13.71193,54.28657],[13.71599,54.29328],[13.71193,54.30394],[13.70509,54.30394],[13.69484,54.29743],[13.67945,54.29401],[13.66334,54.29389],[13.65113,54.29719],[13.65113,54.30394],[13.68824,54.3133],[13.70362,54.32046],[13.71193,54.33186],[13.65992,54.32978],[13.63673,54.32551],[13.61695,54.31761],[13.67213,54.34032],[13.69093,54.34492],[13.69093,54.35175],[13.66407,54.35326],[13.65008,54.35244],[13.64031,54.34833],[13.6268,54.3391],[13.61834,54.34138],[13.61061,54.34797],[13.59929,54.35175],[13.49969,54.34492],[13.48178,54.33828],[13.42888,54.31094],[13.41774,54.30052],[13.4061,54.28522],[13.3816,54.28221],[13.35963,54.27546],[13.35572,54.24873],[13.3694,54.25556],[13.36964,54.26065],[13.36752,54.26195],[13.36476,54.26203],[13.36313,54.26301],[13.4109,54.26789],[13.41774,54.26606],[13.42506,54.24323],[13.42303,54.23273],[13.40724,54.22822],[13.37867,54.23086],[13.34702,54.23745],[13.31153,54.25113],[13.31951,54.25642],[13.32488,54.26822],[13.33522,54.28352],[13.32057,54.27839],[13.31398,54.2744],[13.30787,54.26919],[13.31186,54.26643],[13.31471,54.26301],[13.29469,54.26411],[13.28419,54.26284],[13.27687,54.25926],[13.26791,54.2565],[13.25799,54.26044],[13.24879,54.26626],[13.24244,54.26919],[13.22779,54.27082],[13.21013,54.27582],[13.19923,54.28441],[13.20485,54.29719],[13.19028,54.29975],[13.15968,54.29096],[13.14967,54.29027],[13.14283,54.298],[13.14894,54.30476],[13.16228,54.30769],[13.1775,54.30394],[13.1775,54.31021],[13.11549,54.33808],[13.12924,54.35957],[13.14894,54.37727],[13.17433,54.38398],[13.20485,54.37226],[13.21168,54.3791],[13.22332,54.3725],[13.23715,54.37397],[13.26686,54.38589],[13.25115,54.38691],[13.23927,54.39362],[13.23439,54.40339],[13.23902,54.4138],[13.23902,54.42007],[13.22535,54.42084],[13.21795,54.42569],[13.2116,54.4311],[13.20143,54.43366],[13.15699,54.42683],[13.17433,54.44766],[13.18181,54.45303],[13.20883,54.45694],[13.23902,54.46625],[13.25953,54.46845],[13.25953,54.47529],[13.26075,54.47549],[13.26686,54.47748],[13.27312,54.48212],[13.24537,54.48835],[13.23325,54.49307],[13.22535,54.50194],[13.22877,54.5043],[13.23194,54.50601],[13.23365,54.50922],[13.23276,54.51626],[13.2033,54.50947],[13.1854,54.50829],[13.1775,54.51284],[13.1753,54.51602],[13.17067,54.51679],[13.16603,54.51911],[13.16383,54.5268],[13.16261,54.53547],[13.15887,54.54068],[13.15235,54.54296],[13.1434,54.54291],[13.16635,54.54938],[13.24293,54.55598],[13.25953,54.55378],[13.2649,54.5478],[13.27654,54.54507],[13.28826,54.53994],[13.29363,54.5268],[13.29786,54.51968],[13.30551,54.52342],[13.30926,54.53482],[13.30104,54.55036],[13.31544,54.56196],[13.33367,54.57307],[13.35255,54.58145],[13.3694,54.58515],[13.35825,54.56477],[13.35076,54.55598],[13.34205,54.55036],[13.3484,54.55048],[13.35385,54.54987],[13.35865,54.54755],[13.36313,54.54291],[13.35808,54.53815],[13.34889,54.52367],[13.36329,54.52314],[13.37485,54.52558],[13.3838,54.53189],[13.38982,54.54291],[13.38136,54.54438],[13.37184,54.5489],[13.36313,54.55036],[13.36313,54.5572],[13.37672,54.56464],[13.38787,54.55126],[13.40553,54.53824],[13.41733,54.52456],[13.4109,54.50943],[13.43068,54.49274],[13.45558,54.48749],[13.50709,54.48827],[13.49969,54.49575],[13.50929,54.50898],[13.51417,54.51313],[13.52076,54.51626],[13.52076,54.52367],[13.51295,54.53754],[13.5075,54.54466],[13.49969,54.55036],[13.49969,54.5572],[13.50554,54.55972],[13.5088,54.56184],[13.51287,54.56354],[13.52076,54.56464],[13.52076,54.57079],[13.50831,54.57038],[13.50026,54.56607],[13.49391,54.56074],[13.48658,54.5572],[13.47576,54.5561],[13.44142,54.5572],[13.43605,54.56037],[13.43068,54.56745],[13.42384,54.57453],[13.41432,54.5777],[13.39926,54.57958],[13.39308,54.58454],[13.38966,54.59105],[13.38299,54.59813],[13.37135,54.6081],[13.36915,54.61213],[13.35572,54.60562],[13.34791,54.60082],[13.3318,54.58784],[13.30836,54.57958],[13.29135,54.56879],[13.27329,54.56094],[13.25327,54.56464],[13.24977,54.57648],[13.25685,54.59492],[13.26987,54.6118],[13.28395,54.61929],[13.28696,54.62352],[13.29127,54.63296],[13.29347,54.64228],[13.29054,54.64655],[13.24586,54.6398],[13.23121,54.63386],[13.22478,54.63496],[13.22535,54.64655],[13.23097,54.65331],[13.24155,54.65998],[13.25359,54.66503],[13.3908,54.68818],[13.41871,54.68842],[13.44508,54.68008],[13.44508,54.6739],[13.4297,54.66673],[13.40903,54.65982],[13.39088,54.65054],[13.38299,54.63638],[13.386,54.61864],[13.39454,54.60444],[13.40773,54.59341],[13.42457,54.58515],[13.46632,54.57689],[13.59596,54.59138],[13.64047,54.58568],[13.67067,54.56623],[13.67726,54.54047],[13.65113,54.51626],[13.60678,54.49897],[13.58481,54.48652],[13.57545,54.47187],[13.57911,54.45506],[13.5879,54.43757],[13.59913,54.42268],[13.60955,54.4138],[13.63006,54.40754],[13.67742,54.40082],[13.69825,54.39208]]],[[[8.33237,54.69379],[8.38234,54.63915],[8.40138,54.63296],[8.38771,54.62613],[8.35369,54.61896],[8.33025,54.63142],[8.31137,54.65135],[8.29152,54.66706],[8.32049,54.69872],[8.33839,54.71015],[8.36036,54.71483],[8.36069,54.71003],[8.35914,54.70893],[8.35629,54.70917],[8.35353,54.70799],[8.34246,54.7014],[8.33237,54.69379]]],[[[8.49757,54.75642],[8.55323,54.75446],[8.57594,54.74641],[8.59376,54.7285],[8.59376,54.72167],[8.58546,54.71361],[8.57407,54.6944],[8.56577,54.68757],[8.55209,54.685],[8.53517,54.68618],[8.51987,54.6896],[8.51124,54.69379],[8.4852,54.68806],[8.45281,54.69383],[8.39454,54.71483],[8.41424,54.73579],[8.43678,54.74848],[8.46412,54.75479],[8.49757,54.75642]]],[[[8.36036,54.94819],[8.3545,54.91275],[8.38836,54.89423],[8.43653,54.88727],[8.65447,54.89362],[8.62941,54.88215],[8.50441,54.88618],[8.48878,54.88129],[8.46119,54.8688],[8.44606,54.86628],[8.37713,54.86628],[8.37062,54.86823],[8.36199,54.87694],[8.35353,54.87934],[8.34392,54.8791],[8.33741,54.87759],[8.30714,54.86538],[8.30201,54.86262],[8.29933,54.85529],[8.29786,54.8356],[8.29493,54.83153],[8.29835,54.77692],[8.29575,54.7591],[8.2907,54.74531],[8.28443,54.74238],[8.27784,54.75642],[8.27703,54.78278],[8.28859,54.8913],[8.29803,54.91254],[8.37371,55.03498],[8.41578,55.06533],[8.46339,55.05069],[8.40235,55.04877],[8.39454,55.04385],[8.42221,55.04218],[8.43043,55.03002],[8.42156,55.01626],[8.38087,55.00308],[8.36199,54.9868],[8.35157,54.96674],[8.36036,54.94819]]],[[[8.63453,54.54263],[8.6989,54.55858],[8.70094,54.54776],[8.69288,54.52326],[8.66977,54.5019],[8.64129,54.49238],[8.61883,54.49262],[8.60613,54.49921],[8.59588,54.51366],[8.60206,54.52977],[8.62013,54.53791],[8.62745,54.53994],[8.63453,54.54263]]],[[[7.90415,54.18041],[7.89918,54.17817],[7.89772,54.18232],[7.89357,54.18309],[7.89039,54.18757],[7.88592,54.19066],[7.87989,54.19392],[7.89454,54.19465],[7.90065,54.19066],[7.90415,54.18041]]],[[[7.91236,54.19229],[7.92986,54.1953],[7.93344,54.18989],[7.91765,54.187],[7.91236,54.19229]]]]}},{"type":"Feature","properties":{"navn":"Norge"},"geometry":{"type":"MultiPolygon","coordinates":[[[[11.70912,59.5],[11.78396,59.36062],[11.8068,59.29359],[11.81166,59.27091],[11.81166,59.24967],[11.81109,59.24872],[11.80246,59.23442],[11.78469,59.21814],[11.77559,59.20254],[11.74851,59.14006],[11.74531,59.09216],[11.73425,59.06554],[11.70893,59.02162],[11.70025,58.99914],[11.69374,58.97351],[11.66438,58.92007],[11.61157,58.89315],[11.54708,58.88473],[11.48259,58.8869],[11.45199,58.89604],[11.45323,58.96049],[11.43814,58.99113],[11.43751,58.99173],[11.43776,58.99824],[11.40358,59.03856],[11.39959,59.04768],[11.39381,59.07001],[11.38933,59.08076],[11.37045,59.10065],[11.34457,59.1114],[11.31381,59.11518],[11.21656,59.11042],[11.18238,59.11603],[11.17018,59.13475],[11.17465,59.14094],[11.18312,59.14289],[11.20094,59.14224],[11.20672,59.1457],[11.20167,59.15253],[11.19361,59.15754],[11.19012,59.15522],[11.18312,59.16006],[11.17856,59.16498],[11.17644,59.17231],[11.17799,59.18073],[11.18051,59.18427],[11.181,59.18806],[11.17644,59.19685],[11.16668,59.19213],[11.13551,59.18317],[11.15016,59.1752],[11.15309,59.16254],[11.14731,59.14997],[11.13551,59.14224],[11.11883,59.14228],[11.10711,59.1507],[11.08774,59.17577],[11.09734,59.14851],[11.09913,59.13418],[11.09108,59.128],[11.03248,59.128],[11.03981,59.14374],[11.0267,59.15184],[11.00782,59.15913],[10.9983,59.17231],[10.98943,59.17569],[10.9485,59.18334],[10.93621,59.18317],[10.94484,59.16486],[10.94402,59.14932],[10.93409,59.14037],[10.91635,59.14224],[10.90789,59.14985],[10.90065,59.16401],[10.89772,59.18089],[10.90211,59.19685],[10.88282,59.18769],[10.87257,59.18448],[10.8615,59.18317],[10.85027,59.18037],[10.8484,59.17381],[10.84799,59.16657],[10.84116,59.16144],[10.82293,59.16397],[10.80201,59.18879],[10.77915,59.1894],[10.78419,59.20629],[10.76637,59.23176],[10.77296,59.2521],[10.76189,59.24494],[10.74936,59.22394],[10.73813,59.2167],[10.73317,59.24091],[10.74366,59.26801],[10.76157,59.29352],[10.77915,59.31293],[10.76344,59.31533],[10.7527,59.3227],[10.74415,59.33047],[10.73471,59.33405],[10.72446,59.32978],[10.709,59.31098],[10.70069,59.30671],[10.67408,59.31574],[10.66538,59.33641],[10.65984,59.35936],[10.64275,59.37495],[10.6561,59.38972],[10.65968,59.40021],[10.65301,59.40819],[10.63527,59.41596],[10.59596,59.42373],[10.59165,59.43065],[10.60109,59.4501],[10.62745,59.47883],[10.64454,59.49315],[10.65642,59.49787],[10.66293,59.48872],[10.66114,59.47329],[10.64894,59.44383],[10.66245,59.43789],[10.67514,59.44086],[10.68507,59.45026],[10.69044,59.46312],[10.69028,59.48066],[10.68344,59.48933],[10.67351,59.49527],[10.66829,59.5],[10.32056,59.5],[10.33131,59.49506],[10.3694,59.45527],[10.459,59.44086],[10.47755,59.42963],[10.48032,59.4121],[10.47218,59.39387],[10.44679,59.36473],[10.44451,59.34894],[10.46168,59.33576],[10.49871,59.31977],[10.51417,59.30292],[10.50473,59.2934],[10.48707,59.28413],[10.47755,59.26822],[10.46957,59.24779],[10.45118,59.24897],[10.41619,59.26508],[10.37159,59.27375],[10.36085,59.27131],[10.35914,59.26508],[10.3611,59.24519],[10.36085,59.23786],[10.36476,59.22598],[10.36199,59.21955],[10.33473,59.21479],[10.33025,59.20966],[10.32838,59.20222],[10.31715,59.17959],[10.31316,59.15937],[10.31178,59.13972],[10.31373,59.128],[10.28981,59.13459],[10.28696,59.1149],[10.29591,59.0847],[10.3069,59.05972],[10.29265,59.07014],[10.28663,59.0843],[10.28199,59.09968],[10.27215,59.11433],[10.26808,59.09467],[10.26954,59.0478],[10.26246,59.03856],[10.2601,59.04999],[10.23113,59.11433],[10.22438,59.11433],[10.22267,59.1009],[10.21274,59.07811],[10.21127,59.06656],[10.21656,59.05891],[10.22592,59.05024],[10.23219,59.04035],[10.22779,59.02896],[10.20704,59.01643],[10.17498,59.00532],[10.1408,58.99995],[10.11451,59.00507],[10.12566,59.01455],[10.16188,59.02753],[10.16969,59.03547],[10.16342,59.05231],[10.14877,59.05158],[10.11793,59.03856],[10.10377,59.03539],[10.07651,59.02131],[10.05942,59.01813],[10.05372,59.02285],[10.03346,59.03107],[10.01678,59.03368],[10.03338,58.99348],[10.01482,58.97313],[9.98365,58.96088],[9.95737,58.95669],[9.8462,58.95563],[9.81219,58.96345],[9.83888,58.97187],[9.84522,58.98933],[9.83676,59.00935],[9.81959,59.02558],[9.78175,59.05117],[9.76596,59.0524],[9.75815,59.03238],[9.74887,59.03791],[9.72397,59.05972],[9.71892,59.06151],[9.71209,59.06232],[9.70607,59.06428],[9.70346,59.06997],[9.70411,59.0843],[9.70346,59.08698],[9.68849,59.09077],[9.6854,59.08006],[9.68629,59.06265],[9.68312,59.04605],[9.66863,59.05146],[9.66098,59.0563],[9.64894,59.07331],[9.64527,59.08369],[9.64487,59.0939],[9.64137,59.10244],[9.62843,59.1081],[9.64047,59.11758],[9.63982,59.12727],[9.63063,59.13142],[9.60092,59.11567],[9.53907,59.12055],[9.55909,59.10236],[9.62135,59.07526],[9.63461,59.04947],[9.65415,59.0373],[9.69435,59.02949],[9.72682,59.0152],[9.72397,58.98395],[9.71778,58.98395],[9.71485,58.98859],[9.70867,58.99339],[9.70346,58.99824],[9.69565,58.98737],[9.68474,58.98347],[9.65577,58.98395],[9.65577,58.97712],[9.66749,58.97614],[9.6775,58.9726],[9.68507,58.96625],[9.68979,58.95669],[9.66334,58.95881],[9.59425,58.94302],[9.59425,58.93618],[9.59832,58.93456],[9.60792,58.9287],[9.57594,58.92145],[9.47006,58.9287],[9.50864,58.91083],[9.52394,58.90005],[9.51149,58.89521],[9.47153,58.90082],[9.4559,58.89769],[9.45037,58.88154],[9.42807,58.89313],[9.39943,58.89851],[9.37379,58.89541],[9.3602,58.88154],[9.38152,58.88768],[9.39422,58.88988],[9.40203,58.88837],[9.40366,58.88093],[9.39894,58.87421],[9.39129,58.86921],[9.38453,58.86726],[9.33953,58.86262],[9.31853,58.86603],[9.29884,58.88154],[9.2942,58.86835],[9.27084,58.83316],[9.28272,58.83308],[9.30299,58.82722],[9.31251,58.82632],[9.32309,58.8286],[9.35418,58.83999],[9.37965,58.84418],[9.40317,58.84406],[9.42612,58.84016],[9.45037,58.83316],[9.43621,58.8203],[9.38795,58.80337],[9.36704,58.79218],[9.38844,58.79438],[9.4087,58.79963],[9.4087,58.79218],[9.39235,58.78734],[9.37094,58.77802],[9.35141,58.76553],[9.34051,58.75117],[9.30649,58.73872],[9.24928,58.73359],[9.08009,58.74437],[9.07097,58.7412],[9.06235,58.73412],[9.05844,58.72704],[9.063,58.72382],[9.14357,58.70978],[9.16912,58.71646],[9.11427,58.73111],[9.10084,58.73754],[9.21469,58.72163],[9.21632,58.70279],[9.1867,58.6916],[9.09506,58.69025],[9.05934,58.68293],[9.08912,58.68325],[9.15602,58.68854],[9.18287,58.68635],[9.20053,58.67235],[9.1902,58.66486],[9.15222,58.64327],[9.08918,58.61442],[9.03384,58.59475],[8.99098,58.60033],[8.98561,58.59724],[8.98178,58.59252],[8.97771,58.58845],[8.9712,58.58674],[8.96388,58.58869],[8.95509,58.5974],[8.94947,58.60033],[8.9253,58.607],[8.91334,58.60688],[8.91871,58.59663],[8.9406,58.58666],[8.9489,58.57966],[8.9463,58.56932],[8.95009,58.54718],[8.94388,58.52599],[8.92808,58.51349],[8.90942,58.50089],[8.84729,58.46739],[8.82352,58.45282],[8.79426,58.44038],[8.77745,58.43409],[8.7541,58.42759],[8.74018,58.41564],[8.7328,58.4039],[8.71452,58.3918],[8.7073,58.37891],[8.68279,58.3708],[8.66871,58.36791],[8.65284,58.3664],[8.64161,58.36392],[8.63404,58.35692],[8.62745,58.34764],[8.6194,58.33869],[8.60727,58.33283],[8.59498,58.33145],[8.58839,58.33417],[8.58774,58.34154],[8.57936,58.34748],[8.54526,58.31297],[8.51344,58.29336],[8.50636,58.28311],[8.51808,58.27139],[8.50123,58.25723],[8.47926,58.25926],[8.45582,58.26407],[8.4354,58.25776],[8.42351,58.27021],[8.40935,58.27204],[8.40056,58.26582],[8.4048,58.25434],[8.40626,58.24421],[8.38893,58.24189],[8.35353,58.2447],[8.34498,58.2414],[8.31723,58.22582],[8.30885,58.21988],[8.29526,58.21271],[8.25929,58.20751],[8.24366,58.20311],[8.25131,58.20246],[8.2649,58.19892],[8.27174,58.19628],[8.25758,58.17866],[8.24887,58.17133],[8.22722,58.16315],[8.22462,58.15693],[8.2225,58.15168],[8.22242,58.14012],[8.22316,58.13483],[8.20192,58.12299],[8.18629,58.13288],[8.1727,58.14615],[8.15797,58.14448],[8.13673,58.11498],[8.1229,58.10204],[8.10987,58.10346],[8.09848,58.10839],[8.06577,58.11034],[8.0525,58.11319],[8.04705,58.11689],[8.03549,58.13011],[8.02459,58.14106],[8.05348,58.14818],[8.06756,58.15363],[8.07985,58.1621],[8.06007,58.1774],[8.04575,58.20401],[8.02955,58.22484],[8.00408,58.22305],[8.02215,58.20283],[8.0276,58.18317],[8.02231,58.16376],[8.0075,58.14448],[7.95362,58.1247],[7.93409,58.10944],[7.95631,58.09325],[7.91578,58.08186],[7.75522,58.07001],[7.71518,58.06061],[7.69597,58.05854],[7.66391,58.06729],[7.65358,58.06464],[7.6609,58.04548],[7.64275,58.04584],[7.63461,58.0478],[7.62672,58.05231],[7.62924,58.03124],[7.61476,58.02212],[7.59409,58.02635],[7.57887,58.04548],[7.57488,58.03205],[7.57521,58.02607],[7.57887,58.01752],[7.39064,58.01752],[7.26759,58.03596],[7.25343,58.04365],[7.24985,58.05854],[7.19044,58.04198],[7.17498,58.0312],[7.16635,58.04609],[7.15553,58.05028],[7.08277,58.03685],[7.07879,58.03266],[7.07895,58.02806],[7.07862,58.02497],[7.07692,58.01968],[7.07749,58.01264],[7.07602,58.00654],[7.06837,58.00389],[7.06031,58.00324],[7.02312,57.99482],[7.0066,57.99315],[6.99724,57.99714],[7.00359,58.01138],[6.99936,58.03071],[7.02247,58.04336],[7.05388,58.05264],[7.07521,58.06224],[7.08774,58.07062],[7.09742,58.06843],[7.10621,58.06208],[7.11622,58.05854],[7.12452,58.06338],[7.14031,58.08625],[7.14747,58.09325],[7.14747,58.10008],[7.12762,58.09756],[7.06471,58.07811],[7.05144,58.06904],[7.03492,58.06232],[6.95875,58.04511],[6.93531,58.04548],[6.95249,58.05809],[6.9795,58.08894],[6.9961,58.10008],[6.98032,58.10537],[6.92368,58.06525],[6.90056,58.05231],[6.9074,58.06415],[6.91212,58.07502],[6.91285,58.08641],[6.90797,58.10008],[6.89584,58.09589],[6.87908,58.08373],[6.86638,58.07958],[6.85133,58.08006],[6.83221,58.0843],[6.81446,58.09125],[6.80421,58.10008],[6.84816,58.11518],[6.87078,58.11921],[6.94996,58.12092],[6.97478,58.12678],[6.98927,58.14106],[6.959,58.14008],[6.90415,58.13105],[6.87379,58.13483],[6.84897,58.14753],[6.80152,58.17935],[6.7776,58.18203],[6.81284,58.12824],[6.80795,58.12055],[6.75734,58.11636],[6.73146,58.11986],[6.71559,58.13483],[6.72731,58.14521],[6.72731,58.15754],[6.72332,58.17227],[6.72242,58.18944],[6.69947,58.13646],[6.68824,58.12055],[6.70338,58.12043],[6.71062,58.11547],[6.71534,58.1079],[6.72242,58.10008],[6.73317,58.09414],[6.75359,58.08658],[6.77426,58.07396],[6.78321,58.06981],[6.78256,58.06533],[6.76393,58.05854],[6.75408,58.05809],[6.73365,58.06428],[6.72267,58.06599],[6.6185,58.06831],[6.59588,58.07587],[6.542,58.10765],[6.53053,58.12055],[6.5503,58.12287],[6.56813,58.13178],[6.5809,58.14631],[6.58579,58.16527],[6.59702,58.1765],[6.65301,58.17792],[6.67457,58.18203],[6.66033,58.18814],[6.65406,58.18944],[6.67514,58.20698],[6.72527,58.22163],[6.76588,58.24628],[6.84596,58.27139],[6.82846,58.27473],[6.80299,58.27045],[6.75685,58.25434],[6.6985,58.22456],[6.68141,58.22305],[6.66871,58.23151],[6.63933,58.26411],[6.63364,58.27485],[6.64015,58.29377],[6.65626,58.3028],[6.67644,58.30219],[6.69508,58.2919],[6.70875,58.31297],[6.68727,58.32734],[6.66407,58.32372],[6.64088,58.31635],[6.61997,58.31916],[6.6198,58.26464],[6.62623,58.2447],[6.56235,58.24311],[6.49928,58.26289],[6.40063,58.27223],[6.34752,58.28585],[6.29176,58.30866],[6.28077,58.31297],[6.26596,58.31428],[6.24822,58.31782],[6.23121,58.32315],[6.21901,58.32978],[6.20338,58.33552],[6.14031,58.33967],[6.08497,58.36018],[6.0617,58.3747],[6.05063,58.37946],[6.02117,58.38215],[6.0101,58.38491],[6.00148,58.39012],[5.9839,58.4064],[5.97804,58.4145],[5.9734,58.42402],[5.96892,58.43651],[5.96697,58.44839],[5.96705,58.45869],[5.96437,58.46817],[5.9546,58.47748],[5.92848,58.48359],[5.83732,58.48132],[5.79665,58.48925],[5.77839,58.5209],[5.74195,58.527],[5.70417,58.52077],[5.64625,58.54865],[5.65236,58.56273],[5.6146,58.59324],[5.57154,58.62832],[5.54794,58.66696],[5.52638,58.69429],[5.51816,58.71422],[5.50692,58.7299],[5.47795,58.75475],[5.49521,58.76596],[5.52672,58.78411],[5.53536,58.7989],[5.53967,58.81548],[5.53966,58.83385],[5.53688,58.85358],[5.53053,58.86872],[5.53924,58.87499],[5.55372,58.87763],[5.56414,58.88154],[5.57252,58.89403],[5.57065,58.90005],[5.56219,58.90526],[5.55055,58.91572],[5.54933,58.92084],[5.54322,58.93476],[5.53566,58.94599],[5.53712,58.95612],[5.5464,58.95474],[5.55698,58.94733],[5.56788,58.94302],[5.59767,58.9156],[5.61736,58.90729],[5.62623,58.92561],[5.61638,58.93561],[5.5936,58.94994],[5.55055,58.97089],[5.5604,58.97797],[5.57065,58.98208],[5.58107,58.98225],[5.59156,58.97712],[5.57887,58.98908],[5.54103,58.98457],[5.5232,58.9914],[5.53566,58.9986],[5.54249,59.00959],[5.55055,59.03856],[5.71559,58.97712],[5.70631,58.95222],[5.70102,58.91914],[5.70297,58.8876],[5.71559,58.86726],[5.73553,58.9287],[5.75408,58.93391],[5.80079,58.93183],[5.81813,58.93618],[5.81951,58.94221],[5.81739,58.95978],[5.82179,58.96345],[5.85353,58.96503],[5.8659,58.96345],[5.8825,58.9593],[5.91961,58.94505],[5.93409,58.93618],[5.95737,58.91352],[5.96998,58.90363],[6.09254,58.84724],[6.1351,58.83959],[6.22885,58.83999],[6.20623,58.84903],[6.11899,58.85358],[6.10255,58.85977],[6.08204,58.8708],[6.06479,58.8854],[6.05763,58.90205],[6.06373,58.91364],[6.07789,58.92829],[6.10532,58.95039],[6.12648,58.9621],[6.19484,58.98395],[6.62623,59.0528],[6.62623,59.05972],[6.35206,59.03303],[6.29868,59.01512],[6.16041,58.99824],[6.1268,58.98371],[6.03387,58.90518],[5.98268,58.95173],[5.97511,58.96345],[5.98406,58.98408],[6.00636,58.99103],[6.03191,58.99291],[6.05079,58.99824],[6.03745,59.00283],[6.02003,59.01997],[6.00913,59.02558],[5.99244,59.02513],[5.95395,59.01643],[5.93409,59.01813],[5.91391,59.02806],[5.89186,59.04536],[5.8755,59.06623],[5.87273,59.08698],[5.89064,59.10391],[5.92303,59.11347],[6.02182,59.12613],[6.05079,59.13475],[6.10841,59.14252],[6.12648,59.14842],[6.08937,59.1529],[6.03932,59.14745],[6.0088,59.14936],[6.03045,59.17577],[6.0643,59.20722],[6.07879,59.2167],[6.12517,59.23383],[6.1714,59.26142],[6.25213,59.27725],[6.3239,59.31501],[6.36931,59.32136],[6.46168,59.31977],[6.46168,59.32657],[6.33912,59.32657],[6.31381,59.32294],[6.2024,59.27705],[6.15415,59.26777],[6.11232,59.27456],[6.08497,59.30671],[6.23634,59.31293],[6.23634,59.31977],[6.22657,59.33015],[6.21209,59.33979],[6.19923,59.35155],[6.20069,59.34414],[6.1976,59.3347],[6.18865,59.32657],[6.17213,59.32123],[6.16456,59.32746],[6.15846,59.33662],[6.14698,59.34024],[6.14381,59.33771],[6.12989,59.32315],[6.12281,59.31977],[6.11215,59.31843],[6.10125,59.31867],[6.09246,59.31977],[6.07838,59.32453],[6.06918,59.33177],[6.063,59.34154],[6.05763,59.35391],[6.05405,59.33462],[6.03745,59.32746],[6.01539,59.32856],[5.99545,59.33405],[5.99545,59.34024],[6.00758,59.34614],[6.01547,59.35505],[6.02223,59.3653],[6.03045,59.37495],[6.04152,59.38369],[6.0534,59.39082],[6.07879,59.40229],[6.12924,59.4173],[6.15382,59.4274],[6.17433,59.44383],[6.1775,59.44001],[6.18531,59.4333],[6.18865,59.42963],[6.19304,59.43822],[6.19809,59.44562],[6.21176,59.46003],[6.21616,59.46809],[6.21795,59.48851],[6.22267,59.49787],[6.22603,59.5],[6.18906,59.5],[6.16285,59.46849],[6.15301,59.45942],[6.14031,59.4501],[6.09913,59.43269],[6.07814,59.41934],[6.04152,59.40498],[6.02703,59.40229],[6.00953,59.40762],[5.9983,59.42841],[5.9826,59.42963],[5.98862,59.41596],[5.98325,59.41413],[5.97438,59.40982],[5.96892,59.40852],[5.96892,59.40229],[5.97836,59.40013],[5.9861,59.3959],[5.99195,59.38947],[5.99545,59.38117],[5.94858,59.36026],[5.92416,59.35578],[5.91375,59.37157],[5.91,59.38203],[5.9017,59.38911],[5.89275,59.39517],[5.88624,59.40229],[5.8825,59.41523],[5.88282,59.42512],[5.88502,59.43472],[5.88624,59.44697],[5.92408,59.44611],[6.15317,59.47744],[6.13356,59.49006],[6.10434,59.49291],[6.07374,59.48896],[6.02467,59.47431],[5.90187,59.47907],[5.88746,59.48225],[5.87273,59.48798],[5.86354,59.49429],[5.85794,59.5],[5.79904,59.5],[5.80348,59.49478],[5.80787,59.48029],[5.79754,59.46312],[5.77638,59.45091],[5.74838,59.44579],[5.72283,59.45116],[5.70826,59.47061],[5.71372,59.44668],[5.69646,59.42943],[5.64617,59.40852],[5.6644,59.40648],[5.73553,59.42963],[5.76303,59.43236],[5.78419,59.42927],[5.8025,59.42011],[5.85255,59.385],[5.85817,59.37458],[5.85963,59.35078],[5.84637,59.34691],[5.78354,59.34321],[5.76344,59.34772],[5.7527,59.33625],[5.73846,59.33478],[5.70485,59.34024],[5.69793,59.33804],[5.6976,59.33267],[5.69858,59.32587],[5.69516,59.31977],[5.68238,59.31293],[5.67775,59.3098],[5.66652,59.30467],[5.6242,59.29218],[5.61199,59.29304],[5.60963,59.30557],[5.61866,59.31688],[5.63299,59.32477],[5.64617,59.32657],[5.64617,59.33405],[5.62338,59.35456],[5.60727,59.39029],[5.5866,59.41649],[5.56072,59.40933],[5.57008,59.40742],[5.57814,59.40278],[5.5853,59.39545],[5.57781,59.37592],[5.57635,59.33299],[5.56788,59.31635],[5.54933,59.29971],[5.52931,59.28579],[5.50538,59.27774],[5.47543,59.27875],[5.45607,59.28852],[5.4358,59.30769],[5.42384,59.33047],[5.43043,59.35078],[5.4406,59.36982],[5.44174,59.39224],[5.43312,59.4051],[5.41334,59.39545],[5.40431,59.37897],[5.40284,59.35904],[5.40651,59.31635],[5.40463,59.30427],[5.39943,59.2967],[5.39088,59.29462],[5.37924,59.29926],[5.37273,59.3072],[5.36948,59.31835],[5.36557,59.34024],[5.35385,59.35529],[5.34995,59.36644],[5.35825,59.38719],[5.3576,59.39989],[5.35377,59.41108],[5.3484,59.41596],[5.33627,59.41511],[5.33269,59.41153],[5.33041,59.3581],[5.33139,59.35391],[5.29721,59.34467],[5.23121,59.42426],[5.20167,59.42963],[5.19606,59.44428],[5.19191,59.46304],[5.188,59.49787],[5.1871,59.5],[11.70912,59.5]]],[[[5.27687,59.29926],[5.27898,59.29255],[5.2951,59.28285],[5.3141,59.2736],[5.31793,59.25654],[5.31738,59.22885],[5.30236,59.2055],[5.29709,59.16888],[5.26319,59.15184],[5.23593,59.14106],[5.20855,59.14289],[5.18843,59.15725],[5.17867,59.1705],[5.16617,59.19568],[5.16443,59.21806],[5.17269,59.24103],[5.17213,59.25828],[5.17313,59.26871],[5.16528,59.27343],[5.17872,59.29222],[5.22828,59.28559],[5.18279,59.32001],[5.17384,59.33405],[5.17449,59.34927],[5.18523,59.35586],[5.19874,59.36188],[5.20851,59.37495],[5.18849,59.38398],[5.18002,59.40058],[5.18588,59.41474],[5.20851,59.41596],[5.24488,59.36921],[5.25392,59.34797],[5.26254,59.34105],[5.27263,59.33564],[5.28028,59.33027],[5.28647,59.32038],[5.28403,59.31538],[5.27882,59.31013],[5.27687,59.29926]]],[[[11.07032,59.07933],[11.07569,59.08047],[11.08302,59.0773],[11.08237,59.06786],[11.07553,59.05854],[11.06479,59.0515],[11.05161,59.04613],[11.05047,59.0423],[11.05486,59.03588],[11.0464,59.0268],[11.03053,59.02082],[11.01824,59.01936],[11.01352,59.02163],[11.01157,59.02538],[11.00896,59.0292],[11.00082,59.02961],[10.99147,59.0336],[10.99155,59.04686],[10.99342,59.06232],[10.99318,59.07665],[11.00327,59.08649],[11.02076,59.09125],[11.03435,59.08894],[11.04021,59.08104],[11.03981,59.07441],[11.04762,59.07319],[11.07049,59.0749],[11.06959,59.07762],[11.07032,59.07933]]],[[[10.91049,59.11644],[10.91383,59.11156],[10.9144,59.10074],[10.90707,59.09056],[10.8838,59.07217],[10.87745,59.07123],[10.87477,59.07567],[10.8698,59.07709],[10.85572,59.07416],[10.84571,59.07575],[10.84181,59.08023],[10.83839,59.08641],[10.82911,59.09943],[10.83253,59.10444],[10.84262,59.11001],[10.85548,59.11538],[10.86525,59.1166],[10.86793,59.11327],[10.865,59.10895],[10.85914,59.10602],[10.85572,59.10236],[10.85727,59.09907],[10.87192,59.10651],[10.89763,59.11563],[10.91049,59.11644]]],[[[5.76401,59.11787],[5.77589,59.11274],[5.77849,59.10139],[5.77475,59.08055],[5.75074,59.07233],[5.667,59.10041],[5.60157,59.11522],[5.57521,59.12401],[5.58513,59.12718],[5.5936,59.13251],[5.60792,59.13443],[5.62428,59.13105],[5.63478,59.1315],[5.64682,59.13068],[5.6775,59.1225],[5.69793,59.12019],[5.72096,59.12568],[5.73911,59.12442],[5.76401,59.11787]]],[[[5.46209,59.21088],[5.46632,59.20454],[5.46811,59.19672],[5.46461,59.18309],[5.45118,59.16348],[5.44321,59.15892],[5.43442,59.16108],[5.43068,59.16474],[5.43263,59.16722],[5.43198,59.1706],[5.42742,59.17455],[5.42172,59.1778],[5.39601,59.18793],[5.38478,59.1953],[5.3768,59.20722],[5.37534,59.21882],[5.37843,59.22675],[5.3851,59.23412],[5.39389,59.24042],[5.40382,59.24209],[5.41383,59.24079],[5.42555,59.2364],[5.4323,59.23273],[5.43922,59.22993],[5.452,59.22211],[5.46209,59.21088]]],[[[6.01637,59.29218],[6.0726,59.28506],[6.09986,59.27656],[6.09181,59.26142],[6.05633,59.24071],[6.00441,59.23078],[5.95818,59.22785],[5.92986,59.24348],[5.93247,59.26899],[5.95249,59.28392],[5.98756,59.29084],[6.01637,59.29218]]]]}},{"type":"Feature","properties":{"navn":"Sverige"},"geometry":{"type":"MultiPolygon","coordinates":[[[[18,59.5],[18,59.00355],[17.97739,58.98656],[17.96119,58.96345],[17.9629,58.95173],[17.9686,58.94408],[17.97055,58.93598],[17.96119,58.92251],[17.94825,58.91474],[17.93068,58.91006],[17.91277,58.90986],[17.89967,58.91572],[17.8943,58.90339],[17.89234,58.8898],[17.89283,58.86103],[17.87989,58.8675],[17.8694,58.87702],[17.86525,58.88882],[17.87184,58.90205],[17.86451,58.91498],[17.86118,58.91909],[17.85182,58.92479],[17.84441,58.92463],[17.83774,58.92255],[17.83082,58.92251],[17.81471,58.92821],[17.80519,58.93391],[17.78614,58.95356],[17.77361,58.96068],[17.77565,58.94721],[17.78736,58.92552],[17.80348,58.90827],[17.792,58.89086],[17.78631,58.88422],[17.77931,58.88154],[17.77443,58.88622],[17.7754,58.89692],[17.77915,58.90843],[17.78297,58.91572],[17.74928,58.92381],[17.74676,58.94261],[17.75196,58.96507],[17.74147,58.98395],[17.74147,58.9914],[17.75571,59.00633],[17.76075,59.03701],[17.76027,59.06721],[17.75856,59.08076],[17.75611,59.08519],[17.76905,59.10895],[17.76881,59.12055],[17.75815,59.12592],[17.74464,59.12275],[17.73276,59.11445],[17.72779,59.10468],[17.72633,59.07355],[17.7212,59.05899],[17.71046,59.0528],[17.70135,59.05728],[17.66578,59.08076],[17.66871,59.09545],[17.68881,59.11799],[17.69361,59.13142],[17.68995,59.14281],[17.68092,59.15339],[17.66969,59.1623],[17.65895,59.16889],[17.67311,59.13475],[17.66114,59.11962],[17.64747,59.10806],[17.63111,59.09956],[17.61109,59.09382],[17.62045,59.07258],[17.61622,59.05117],[17.61451,59.03213],[17.6316,59.01813],[17.62143,59.00239],[17.61427,58.9807],[17.60711,58.96597],[17.5975,58.97089],[17.58644,58.96499],[17.58627,58.96491],[17.58139,58.96113],[17.57692,58.95669],[17.58473,58.951],[17.59295,58.94685],[17.60174,58.94424],[17.61109,58.94302],[17.61109,58.93618],[17.60125,58.9278],[17.61378,58.92402],[17.62672,58.91779],[17.61793,58.90205],[17.59897,58.89411],[17.57814,58.89558],[17.55681,58.90034],[17.53598,58.90205],[17.54575,58.88964],[17.55942,58.88036],[17.59067,58.86726],[17.59067,58.86103],[17.56951,58.86103],[17.57651,58.85651],[17.58375,58.85358],[17.55568,58.85415],[17.48024,58.88614],[17.44728,58.89521],[17.44728,58.88837],[17.46502,58.8815],[17.46909,58.87043],[17.46022,58.83999],[17.45143,58.82339],[17.44996,58.81586],[17.4572,58.81265],[17.46437,58.81102],[17.48829,58.79963],[17.45973,58.79145],[17.33741,58.80646],[17.37159,58.779],[17.3768,58.76439],[17.35776,58.75117],[17.30519,58.75239],[17.27605,58.74885],[17.27605,58.7307],[17.16236,58.732],[17.13185,58.73754],[17.12078,58.74409],[17.10084,58.76138],[17.08693,58.76484],[17.07537,58.76268],[17.04615,58.75332],[17.02817,58.75117],[17.04176,58.74702],[17.07342,58.74478],[17.08351,58.73754],[17.08367,58.72871],[17.0774,58.72036],[17.0691,58.71381],[17.06251,58.71019],[17.08302,58.70287],[17.12534,58.7058],[17.14568,58.70279],[17.14568,58.6966],[17.12257,58.6833],[17.10792,58.66966],[17.09303,58.66083],[17.06984,58.66181],[17.01092,58.68183],[16.97495,58.68537],[16.95387,58.66926],[17.00164,58.66787],[17.01954,58.65986],[17.03582,58.6413],[17.01295,58.64143],[16.92416,58.62543],[16.57895,58.64735],[16.23374,58.66926],[16.23374,58.66181],[16.24643,58.65864],[16.25709,58.65176],[16.26149,58.64305],[16.25489,58.63451],[16.23992,58.63227],[16.19777,58.6374],[16.17921,58.63451],[16.17921,58.62832],[16.19174,58.6319],[16.20395,58.63398],[16.21412,58.63129],[16.22006,58.62084],[16.24025,58.62812],[16.28541,58.61591],[16.30616,58.62458],[16.32065,58.63618],[16.334,58.63915],[16.34604,58.63581],[16.36752,58.62173],[16.37159,58.62055],[16.37208,58.61713],[16.37159,58.60375],[16.37648,58.59516],[16.38771,58.59162],[16.40024,58.59235],[16.40919,58.59663],[16.41603,58.60908],[16.4214,58.62491],[16.4284,58.63939],[16.43979,58.64814],[16.45387,58.64598],[16.50457,58.63093],[16.51783,58.62458],[16.63592,58.62678],[16.6574,58.6223],[16.67604,58.61058],[16.68971,58.60546],[16.73048,58.60228],[16.7483,58.59292],[16.74635,58.59785],[16.7435,58.60912],[16.74155,58.614],[16.77687,58.60765],[16.78932,58.60716],[16.77963,58.58869],[16.78598,58.57274],[16.80421,58.56208],[16.83033,58.55939],[16.82106,58.55353],[16.81666,58.55195],[16.81666,58.54637],[16.84401,58.54637],[16.84401,58.53889],[16.83416,58.52953],[16.84669,58.52436],[16.88494,58.51846],[16.9402,58.49112],[16.91619,58.48347],[16.8659,58.48306],[16.84401,58.47748],[16.85288,58.46308],[16.83033,58.45209],[16.7964,58.44514],[16.77198,58.44269],[16.76547,58.44066],[16.75359,58.43146],[16.7483,58.42902],[16.74098,58.42963],[16.72755,58.43488],[16.72047,58.43651],[16.59791,58.44864],[16.53972,58.46817],[16.44142,58.48599],[16.41261,58.47748],[16.44825,58.4748],[16.65952,58.41478],[16.69256,58.41275],[16.70558,58.4077],[16.71485,58.39497],[16.71502,58.38573],[16.71144,58.37739],[16.70965,58.36913],[16.71485,58.36018],[16.7234,58.36075],[16.73894,58.36494],[16.75229,58.37006],[16.75457,58.37377],[16.76661,58.3686],[16.77125,58.36311],[16.77508,58.33967],[16.63168,58.35395],[16.64812,58.34325],[16.68474,58.32787],[16.69996,58.31916],[16.6963,58.30858],[16.6985,58.3017],[16.71079,58.29873],[16.72185,58.29987],[16.72706,58.30362],[16.72674,58.31],[16.72047,58.31916],[16.77931,58.32559],[16.79916,58.32364],[16.78932,58.30557],[16.78395,58.30415],[16.76734,58.30598],[16.7614,58.30557],[16.76051,58.30244],[16.76002,58.29633],[16.75864,58.28974],[16.75457,58.2851],[16.74301,58.28132],[16.7068,58.27827],[16.7068,58.27139],[16.7295,58.2685],[16.80299,58.2447],[16.79331,58.23884],[16.78932,58.23725],[16.80258,58.23102],[16.81373,58.2204],[16.8213,58.2071],[16.82407,58.19286],[16.82228,58.17963],[16.81707,58.17719],[16.80836,58.17988],[16.79615,58.18203],[16.78826,58.17927],[16.79152,58.17292],[16.80047,58.16608],[16.80983,58.1621],[16.77719,58.13052],[16.72145,58.14985],[16.66188,58.18553],[16.61744,58.20311],[16.63209,58.18574],[16.67189,58.16527],[16.68629,58.1479],[16.6797,58.14826],[16.66603,58.14741],[16.65952,58.1479],[16.68165,58.12824],[16.71608,58.10415],[16.73609,58.08478],[16.71485,58.07958],[16.71762,58.0668],[16.71225,58.05952],[16.70102,58.05695],[16.68629,58.05854],[16.70737,58.04987],[16.72486,58.04584],[16.74025,58.03978],[16.75457,58.02497],[16.74643,58.01659],[16.7378,58.01423],[16.72885,58.01728],[16.72047,58.02497],[16.69158,58.01484],[16.68678,58.00873],[16.69996,57.99771],[16.67905,58.00511],[16.65797,58.03535],[16.6447,58.03864],[16.6312,58.0279],[16.63722,58.01447],[16.65952,57.99022],[16.67164,57.99177],[16.68629,57.99022],[16.68686,57.98924],[16.6976,57.97065],[16.70639,57.9621],[16.71762,57.96662],[16.72779,57.97407],[16.73536,57.97191],[16.74,57.9621],[16.74155,57.94619],[16.74724,57.94042],[16.77394,57.92341],[16.78248,57.91511],[16.76539,57.91523],[16.72731,57.92878],[16.73618,57.91376],[16.76539,57.89883],[16.76881,57.88784],[16.75815,57.87702],[16.74106,57.87718],[16.7234,57.88349],[16.71079,57.89126],[16.69117,57.91621],[16.68287,57.91889],[16.67945,57.89838],[16.67075,57.89143],[16.65056,57.89086],[16.61061,57.89468],[16.61378,57.90351],[16.61378,57.9121],[16.61036,57.92056],[16.60377,57.92878],[16.615,57.92959],[16.62566,57.92837],[16.63559,57.92548],[16.6447,57.92133],[16.51531,57.99885],[16.50587,57.99824],[16.4983,57.99299],[16.49448,57.98404],[16.49724,57.9772],[16.50457,57.97016],[16.53207,57.95026],[16.5901,57.93561],[16.58481,57.9326],[16.57488,57.92438],[16.56959,57.92133],[16.57602,57.91128],[16.577,57.90192],[16.57252,57.89395],[16.56276,57.88784],[16.54412,57.89891],[16.52459,57.90632],[16.48081,57.91511],[16.49448,57.90209],[16.48707,57.89468],[16.48015,57.89826],[16.4603,57.90209],[16.4603,57.89468],[16.67547,57.76447],[16.7068,57.75064],[16.69996,57.74384],[16.68295,57.7473],[16.6351,57.76569],[16.6211,57.77424],[16.54184,57.83902],[16.41944,57.89468],[16.42758,57.8769],[16.43898,57.86538],[16.4734,57.84687],[16.53004,57.82526],[16.57325,57.79536],[16.5809,57.78693],[16.58676,57.77888],[16.59449,57.7729],[16.60719,57.77049],[16.61818,57.76659],[16.65268,57.74632],[16.66521,57.73701],[16.65211,57.72956],[16.67303,57.72972],[16.69077,57.72565],[16.70484,57.71678],[16.71485,57.70283],[16.69313,57.70283],[16.69313,57.69599],[16.7068,57.69599],[16.7068,57.68854],[16.63917,57.69233],[16.6089,57.69872],[16.577,57.70966],[16.584,57.70039],[16.60255,57.68903],[16.61061,57.68236],[16.61997,57.66665],[16.61769,57.65827],[16.60483,57.65681],[16.58326,57.66193],[16.59181,57.65168],[16.60328,57.64912],[16.61508,57.6479],[16.62485,57.64143],[16.63054,57.6291],[16.62615,57.62458],[16.61655,57.62238],[16.60719,57.61717],[16.59783,57.6103],[16.57,57.59569],[16.56276,57.59296],[16.55714,57.59687],[16.55494,57.60619],[16.55494,57.61738],[16.55592,57.62714],[16.54762,57.62222],[16.53883,57.62067],[16.5298,57.62238],[16.52052,57.62714],[16.53053,57.61547],[16.53533,57.61148],[16.54225,57.60733],[16.52735,57.59545],[16.52052,57.59296],[16.52052,57.58613],[16.54225,57.57929],[16.54225,57.5725],[16.51499,57.5725],[16.51499,57.56631],[16.59246,57.56485],[16.62916,57.55687],[16.65756,57.51553],[16.68035,57.48965],[16.68898,57.47175],[16.65952,57.47626],[16.67221,57.45966],[16.66676,57.45527],[16.65219,57.45454],[16.63844,57.44896],[16.63331,57.43708],[16.63901,57.4267],[16.65301,57.41901],[16.67262,57.41547],[16.65602,57.40925],[16.63722,57.4062],[16.62574,57.39899],[16.63168,57.38076],[16.5726,57.38744],[16.54762,57.38251],[16.53484,57.36026],[16.56959,57.34658],[16.56023,57.33739],[16.54957,57.33316],[16.54737,57.3288],[16.56276,57.31928],[16.4852,57.29462],[16.46909,57.27538],[16.49448,57.24291],[16.46599,57.22801],[16.45818,57.20401],[16.46502,57.17731],[16.48081,57.15477],[16.50945,57.12735],[16.52052,57.12006],[16.53102,57.11693],[16.53728,57.11823],[16.54314,57.11799],[16.5525,57.11009],[16.56959,57.08649],[16.55445,57.08076],[16.56056,57.06928],[16.57447,57.0561],[16.58326,57.04491],[16.57049,57.04434],[16.53484,57.05174],[16.53338,57.05443],[16.535,57.05907],[16.53484,57.06346],[16.52768,57.06538],[16.52125,57.0644],[16.51783,57.06208],[16.51612,57.05976],[16.51499,57.05858],[16.51075,57.05598],[16.50856,57.05101],[16.50685,57.0456],[16.5044,57.04149],[16.50034,57.03974],[16.49684,57.04145],[16.49269,57.04389],[16.47633,57.04584],[16.4524,57.05142],[16.43979,57.05174],[16.44752,57.04438],[16.45533,57.0384],[16.46404,57.034],[16.4734,57.03124],[16.4734,57.02383],[16.45314,57.02351],[16.43979,57.01411],[16.43491,56.99787],[16.43979,56.97663],[16.44972,56.9645],[16.46144,56.95661],[16.46811,56.94929],[16.46339,56.93846],[16.43637,56.91112],[16.43629,56.90477],[16.43995,56.87783],[16.43979,56.86685],[16.43629,56.85688],[16.40895,56.80842],[16.40797,56.79914],[16.41603,56.78799],[16.42856,56.78295],[16.44077,56.78706],[16.4524,56.79414],[16.46339,56.79784],[16.4725,56.79438],[16.47446,56.78632],[16.47169,56.77741],[16.46656,56.77119],[16.45484,56.7683],[16.42758,56.77558],[16.41261,56.77741],[16.39682,56.77481],[16.37623,56.76569],[16.36109,56.76374],[16.35662,56.75845],[16.36305,56.74649],[16.37778,56.7259],[16.38063,56.69379],[16.37916,56.67561],[16.37159,56.66132],[16.35865,56.65445],[16.34156,56.65127],[16.32496,56.65217],[16.30112,56.66328],[16.28826,56.66132],[16.27565,56.65656],[16.2649,56.65388],[16.25522,56.65038],[16.24635,56.6424],[16.22364,56.6142],[16.22096,56.60871],[16.2212,56.60375],[16.22006,56.593],[16.21551,56.57172],[16.21323,56.54841],[16.20704,56.53852],[16.17872,56.53706],[16.17237,56.52729],[16.16603,56.508],[16.11769,56.45527],[16.09523,56.41938],[16.06625,56.33596],[16.03826,56.25507],[16.03151,56.24982],[16.02036,56.24641],[16.0145,56.23827],[16.01043,56.22826],[16.0044,56.21943],[15.9878,56.20775],[15.94899,56.18745],[15.93214,56.17471],[15.87436,56.10273],[15.85174,56.08637],[15.83513,56.08796],[15.81674,56.09785],[15.78875,56.10643],[15.8187,56.14004],[15.82651,56.15937],[15.80616,56.16791],[15.75668,56.15672],[15.73121,56.15721],[15.71363,56.17471],[15.70249,56.17023],[15.69679,56.17316],[15.69174,56.17862],[15.68238,56.18155],[15.67018,56.18354],[15.65577,56.19257],[15.6482,56.19457],[15.63152,56.18574],[15.61183,56.16926],[15.59213,56.16055],[15.57594,56.17471],[15.58286,56.18081],[15.5923,56.19245],[15.5962,56.20376],[15.58644,56.20889],[15.57277,56.20629],[15.53492,56.18838],[15.49293,56.17634],[15.48658,56.17133],[15.48487,56.15567],[15.47999,56.15184],[15.45981,56.16108],[15.45232,56.16596],[15.44402,56.17284],[15.43328,56.1789],[15.41822,56.18155],[15.40398,56.17976],[15.3934,56.17512],[15.37672,56.16108],[15.37037,56.15144],[15.37013,56.14492],[15.36557,56.1411],[15.32097,56.13964],[15.3073,56.14175],[15.29526,56.14741],[15.31471,56.15339],[15.3226,56.15363],[15.31674,56.16328],[15.29526,56.18838],[15.27377,56.17121],[15.23455,56.15721],[15.19239,56.1529],[15.16188,56.1645],[15.15431,56.16865],[15.14633,56.16694],[15.13868,56.16315],[15.13087,56.16108],[15.09303,56.16108],[15.08522,56.16462],[15.08172,56.18207],[15.07553,56.18838],[15.0687,56.18773],[15.04428,56.18228],[15.03468,56.18155],[15.03826,56.17544],[15.04526,56.15961],[15.049,56.15363],[14.98846,56.16918],[14.95338,56.17292],[14.92823,56.1645],[14.90602,56.1612],[14.87322,56.16474],[14.84816,56.16397],[14.84962,56.14741],[14.83025,56.14265],[14.81332,56.15009],[14.79575,56.16128],[14.77459,56.16791],[14.72495,56.16763],[14.70135,56.16136],[14.6858,56.14741],[14.68295,56.13907],[14.681,56.12743],[14.6823,56.11713],[14.68898,56.11262],[14.70338,56.10944],[14.7103,56.10187],[14.71453,56.09268],[14.71998,56.08466],[14.7483,56.06074],[14.75799,56.04849],[14.76775,56.03071],[14.75636,56.02741],[14.74383,56.02143],[14.73219,56.01411],[14.7234,56.00654],[14.71551,56.00235],[14.71046,56.00658],[14.70574,56.01704],[14.6858,56.01704],[14.67905,56.00926],[14.67303,56.00532],[14.66472,56.00654],[14.6574,56.00926],[14.64975,56.01032],[14.62184,56.01016],[14.6115,56.01114],[14.60971,56.01533],[14.62379,56.02448],[14.61525,56.03018],[14.60768,56.03701],[14.60304,56.04597],[14.60328,56.05805],[14.58221,56.04377],[14.5713,56.05085],[14.56674,56.05561],[14.5691,56.05805],[14.55665,56.05537],[14.53346,56.04584],[14.52443,56.04377],[14.49741,56.04047],[14.47885,56.03168],[14.44557,56.00275],[14.40773,55.97704],[14.38559,55.96625],[14.36647,55.96186],[14.34645,55.95332],[14.33334,55.93452],[14.32325,55.91572],[14.31153,55.90717],[14.27101,55.89448],[14.23471,55.8627],[14.20851,55.82128],[14.1985,55.77998],[14.19418,55.74189],[14.19581,55.72565],[14.2059,55.70856],[14.2225,55.69685],[14.26108,55.68016],[14.27369,55.66763],[14.27589,55.65681],[14.27508,55.64615],[14.27605,55.635],[14.28452,55.62295],[14.29477,55.61518],[14.31666,55.60236],[14.35817,55.56367],[14.36752,55.5454],[14.36305,55.52363],[14.34881,55.51057],[14.29469,55.47553],[14.27711,55.46841],[14.2649,55.46125],[14.21901,55.41376],[14.19972,55.39899],[14.18116,55.39082],[14.15838,55.38719],[14.09409,55.3874],[14.06422,55.39077],[14.03541,55.39712],[13.95623,55.42683],[13.93002,55.43277],[13.89723,55.43488],[13.88234,55.43305],[13.85678,55.42438],[13.8423,55.42121],[13.82814,55.42133],[13.78028,55.42744],[13.64731,55.42121],[13.62957,55.41828],[13.61818,55.41096],[13.60865,55.4018],[13.59596,55.39326],[13.58082,55.38882],[13.53785,55.39326],[13.50343,55.38837],[13.4109,55.35228],[13.38136,55.34602],[13.31251,55.34268],[13.28053,55.34545],[13.11549,55.38028],[13.06153,55.38125],[13.04176,55.38544],[13.03077,55.38642],[13.02491,55.38825],[13.00864,55.39692],[13.00001,55.40009],[12.97918,55.40327],[12.95834,55.40009],[12.94728,55.39623],[12.93263,55.38801],[12.92091,55.38642],[12.91041,55.38752],[12.89715,55.39216],[12.88673,55.39326],[12.8672,55.38886],[12.84742,55.38203],[12.83277,55.38255],[12.82879,55.40009],[12.85939,55.43488],[12.86622,55.435],[12.87184,55.43439],[12.87794,55.43138],[12.88673,55.4243],[12.90463,55.41796],[12.9297,55.41877],[12.95289,55.42499],[12.96583,55.43488],[12.95997,55.4479],[12.96323,55.45425],[12.97291,55.45417],[12.98569,55.4479],[12.97584,55.47504],[12.92848,55.52001],[12.91749,55.54719],[12.92937,55.57893],[12.95834,55.59813],[13.02735,55.62665],[13.03834,55.6352],[13.04949,55.64712],[13.05795,55.66071],[13.06137,55.67447],[13.05486,55.69404],[13.04054,55.70539],[13.02638,55.71239],[13.01149,55.72842],[12.99293,55.72578],[12.97438,55.72647],[12.96583,55.74616],[12.94117,55.74535],[12.92262,55.74946],[12.91131,55.76386],[12.92384,55.76529],[12.9319,55.76948],[12.93653,55.77741],[12.93865,55.79047],[12.92604,55.83405],[12.89129,55.85358],[12.85076,55.86567],[12.8213,55.88671],[12.8108,55.90225],[12.80836,55.91014],[12.80763,55.92463],[12.80494,55.92927],[12.79851,55.9348],[12.79054,55.9394],[12.7837,55.94135],[12.77076,55.94843],[12.76466,55.96479],[12.76002,55.98322],[12.75229,55.99657],[12.73487,56.00617],[12.71949,56.01215],[12.70875,56.02131],[12.7046,56.04068],[12.69801,56.0515],[12.60955,56.11652],[12.60222,56.1232],[12.56463,56.1717],[12.55372,56.18155],[12.54461,56.2132],[12.54078,56.22248],[12.51645,56.25218],[12.50457,56.27534],[12.46485,56.29169],[12.45143,56.30443],[12.64625,56.25727],[12.65366,56.25397],[12.66619,56.23945],[12.67384,56.23615],[12.68165,56.23404],[12.69663,56.2246],[12.70485,56.22248],[12.71339,56.22358],[12.72739,56.22822],[12.73561,56.22932],[12.7776,56.22651],[12.79689,56.2281],[12.81446,56.23615],[12.8274,56.24995],[12.83351,56.26569],[12.82944,56.27855],[12.78346,56.2934],[12.76295,56.31538],[12.73178,56.35969],[12.64381,56.39606],[12.62159,56.41934],[12.65691,56.45527],[12.71372,56.46735],[12.83326,56.44257],[12.89015,56.45527],[12.90447,56.46703],[12.92042,56.4853],[12.93336,56.50654],[12.93865,56.52729],[12.93442,56.54707],[12.90382,56.593],[12.88608,56.63715],[12.87176,56.64948],[12.84205,56.65388],[12.81804,56.65253],[12.77817,56.64423],[12.76238,56.6433],[12.74684,56.64423],[12.73178,56.64704],[12.67986,56.67959],[12.67042,56.69208],[12.66432,56.7143],[12.64926,56.72517],[12.63136,56.73404],[12.61573,56.75007],[12.59474,56.78799],[12.60035,56.80988],[12.59832,56.82099],[12.53387,56.84634],[12.52955,56.84968],[12.52882,56.85358],[12.52882,56.85733],[12.52703,56.85993],[12.52052,56.86201],[12.50424,56.86473],[12.4992,56.86685],[12.47999,56.88638],[12.46957,56.89204],[12.43735,56.89619],[12.41188,56.90559],[12.37501,56.91206],[12.35646,56.92381],[12.34523,56.94135],[12.34213,56.96296],[12.34425,56.96792],[12.35304,56.97675],[12.35515,56.97972],[12.35426,56.98566],[12.34986,56.99543],[12.34889,57.00056],[12.34685,57.00629],[12.34099,57.01407],[12.33326,57.0209],[12.30177,57.02924],[12.27125,57.04287],[12.24741,57.06074],[12.24529,57.07905],[12.23797,57.08137],[12.2186,57.09272],[12.23764,57.10806],[12.23341,57.12149],[12.20436,57.14794],[12.20102,57.15571],[12.19793,57.17577],[12.19744,57.18488],[12.19142,57.18529],[12.16098,57.18415],[12.1491,57.1883],[12.18051,57.20417],[12.19125,57.21259],[12.18068,57.21625],[12.15773,57.21686],[12.13836,57.21967],[12.12037,57.2259],[12.10133,57.23672],[12.12924,57.23672],[12.14291,57.23872],[12.15651,57.24291],[12.14243,57.24795],[12.12729,57.25007],[12.09506,57.25039],[12.09506,57.25715],[12.10548,57.26301],[12.11232,57.26976],[12.11988,57.27534],[12.14259,57.27998],[12.14723,57.28547],[12.14723,57.29222],[12.14283,57.29816],[12.14405,57.31013],[12.13697,57.31953],[12.12574,57.32681],[12.115,57.33234],[12.11248,57.33519],[12.10939,57.34003],[12.10499,57.34455],[12.09816,57.34658],[12.08985,57.34516],[12.0739,57.33983],[12.06715,57.33979],[12.04982,57.35114],[12.06373,57.36359],[12.08985,57.37788],[12.10874,57.39436],[12.06031,57.39436],[12.08269,57.40229],[12.09205,57.41136],[12.08985,57.42304],[12.05926,57.45881],[12.05348,57.46263],[12.04363,57.46182],[12.03663,57.45698],[12.03012,57.45157],[12.02272,57.44896],[12.0066,57.43415],[11.99293,57.36603],[11.97902,57.34658],[11.97218,57.36408],[11.94996,57.36083],[11.9336,57.36083],[11.94484,57.3876],[11.9336,57.38691],[11.9227,57.3874],[11.91261,57.38972],[11.90333,57.39436],[11.91521,57.40339],[11.91375,57.41665],[11.90699,57.43244],[11.90333,57.44896],[11.90707,57.46528],[11.91635,57.47626],[11.9297,57.48383],[11.94484,57.48994],[11.92775,57.49795],[11.91017,57.50361],[11.91676,57.50471],[11.93116,57.51105],[11.91017,57.52147],[11.90333,57.52412],[11.91765,57.53954],[11.91147,57.59528],[11.91684,57.62092],[11.91285,57.62295],[11.90187,57.62637],[11.89715,57.62714],[11.89186,57.61298],[11.87965,57.60619],[11.86736,57.60741],[11.86158,57.61717],[11.85808,57.63264],[11.84962,57.64326],[11.84059,57.652],[11.83497,57.66193],[11.84457,57.68301],[11.90952,57.68684],[11.92368,57.70283],[11.90211,57.69623],[11.87436,57.69326],[11.84588,57.69331],[11.8213,57.69599],[11.77052,57.71223],[11.74773,57.71361],[11.7518,57.69599],[11.73805,57.69326],[11.71974,57.69351],[11.70541,57.69843],[11.70395,57.70966],[11.70631,57.72199],[11.80152,57.77424],[11.8104,57.7814],[11.80787,57.78807],[11.7894,57.79027],[11.76686,57.7888],[11.7518,57.78482],[11.72731,57.80305],[11.70786,57.82315],[11.68678,57.83763],[11.65626,57.83942],[11.6784,57.85375],[11.69077,57.85859],[11.70395,57.8605],[11.69361,57.88117],[11.70729,57.89143],[11.75929,57.90209],[11.75929,57.90827],[11.74562,57.90827],[11.74562,57.91511],[11.75538,57.91714],[11.75945,57.91901],[11.76612,57.92878],[11.73658,57.93867],[11.74366,57.95572],[11.78728,57.99771],[11.80014,58.02228],[11.80291,58.03657],[11.79713,58.0489],[11.78777,58.05899],[11.78297,58.06916],[11.78631,58.0786],[11.80096,58.08641],[11.7977,58.09028],[11.79615,58.09333],[11.79347,58.10008],[11.81813,58.10318],[11.82846,58.12124],[11.83741,58.18716],[11.84132,58.19379],[11.85206,58.19628],[11.86541,58.19672],[11.87574,58.19916],[11.8838,58.20527],[11.88966,58.21678],[11.87371,58.2154],[11.86061,58.21841],[11.85182,58.22663],[11.84457,58.25336],[11.83481,58.26171],[11.82342,58.26899],[11.81381,58.27827],[11.80893,58.30219],[11.82594,58.31656],[11.88282,58.33283],[11.87037,58.34536],[11.84946,58.34268],[11.80698,58.32661],[11.7518,58.32978],[11.72674,58.32709],[11.72576,58.31297],[11.71144,58.30756],[11.67897,58.30744],[11.62867,58.28148],[11.61891,58.27827],[11.6128,58.27436],[11.59099,58.25633],[11.58107,58.25092],[11.56707,58.24921],[11.55201,58.25031],[11.53777,58.25349],[11.52589,58.25776],[11.53045,58.25275],[11.53956,58.23725],[11.50587,58.24307],[11.49659,58.25837],[11.50367,58.28022],[11.51905,58.30557],[11.54176,58.33356],[11.56739,58.35505],[11.62208,58.38813],[11.60776,58.39497],[11.62176,58.40599],[11.63697,58.41356],[11.66993,58.42219],[11.6526,58.43741],[11.62892,58.43134],[11.60532,58.41547],[11.58863,58.40111],[11.57838,58.41413],[11.55926,58.44831],[11.55323,58.4632],[11.54705,58.4632],[11.55348,58.43399],[11.55177,58.39936],[11.54168,58.36494],[11.52247,58.33625],[11.49497,58.31249],[11.46599,58.29414],[11.39617,58.26459],[11.40512,58.2792],[11.41619,58.29035],[11.42897,58.29898],[11.44337,58.30557],[11.44337,58.31297],[11.42807,58.31184],[11.39918,58.30297],[11.38933,58.30557],[11.3838,58.31818],[11.3895,58.32909],[11.40105,58.33682],[11.41326,58.33967],[11.44858,58.34174],[11.44125,58.34907],[11.42286,58.36384],[11.42408,58.38813],[11.40699,58.38736],[11.39772,58.37885],[11.39112,58.36644],[11.3825,58.35395],[11.37062,58.34748],[11.35532,58.3439],[11.34588,58.34602],[11.35141,58.35708],[11.38592,58.39802],[11.40724,58.41836],[11.4157,58.4289],[11.42408,58.44269],[11.41521,58.43195],[11.37241,58.39989],[11.35597,58.39273],[11.3484,58.38813],[11.34506,58.38386],[11.33766,58.37189],[11.33416,58.36762],[11.30681,58.36005],[11.27915,58.36616],[11.25359,58.36591],[11.2317,58.33967],[11.22088,58.34626],[11.21957,58.35273],[11.22267,58.36042],[11.22486,58.37067],[11.22169,58.37958],[11.20436,58.40111],[11.209,58.41893],[11.2234,58.42487],[11.25904,58.42219],[11.25148,58.44233],[11.26124,58.45222],[11.27858,58.45905],[11.29371,58.47004],[11.25766,58.48216],[11.25221,58.48737],[11.25001,58.49323],[11.24073,58.50218],[11.23854,58.50788],[11.24073,58.51252],[11.24537,58.5163],[11.25001,58.5185],[11.25221,58.51846],[11.25294,58.54825],[11.25563,58.55573],[11.26499,58.56289],[11.27329,58.56623],[11.28053,58.5703],[11.28631,58.5799],[11.2658,58.5799],[11.26979,58.59223],[11.26482,58.59675],[11.25701,58.59968],[11.25221,58.60716],[11.25278,58.61603],[11.25904,58.6258],[11.25904,58.63451],[11.24985,58.64891],[11.21062,58.67919],[11.21412,58.69892],[11.21803,58.70795],[11.21241,58.71035],[11.18686,58.71019],[11.17742,58.71857],[11.17856,58.73648],[11.18979,58.753],[11.21062,58.75739],[11.20688,58.77094],[11.21266,58.77945],[11.22267,58.78754],[11.2317,58.79963],[11.23341,58.80817],[11.2317,58.8437],[11.22633,58.84894],[11.21461,58.85126],[11.20289,58.85493],[11.1976,58.86416],[11.1976,58.88789],[11.19557,58.89838],[11.19012,58.90827],[11.19321,58.91218],[11.195,58.91523],[11.1976,58.92251],[11.14674,58.93122],[11.11988,58.94086],[11.10817,58.95356],[11.11744,58.96882],[11.13893,58.97834],[11.18385,58.9914],[11.14178,58.98957],[11.12281,58.99409],[11.115,59.00821],[11.1194,59.02082],[11.12941,59.0312],[11.19361,59.08015],[11.22006,59.09016],[11.32097,59.09951],[11.35467,59.09162],[11.36891,59.06306],[11.37623,59.04169],[11.39381,59.01944],[11.41407,59.00113],[11.4297,58.9914],[11.43751,58.9914],[11.43751,58.99173],[11.43814,58.99113],[11.45323,58.96049],[11.45199,58.89604],[11.48259,58.8869],[11.54708,58.88473],[11.61157,58.89315],[11.66438,58.92007],[11.69374,58.97351],[11.70025,58.99914],[11.70893,59.02162],[11.73425,59.06554],[11.74531,59.09216],[11.74851,59.14006],[11.77559,59.20254],[11.78469,59.21814],[11.80246,59.23442],[11.81109,59.24872],[11.81166,59.24967],[11.81166,59.27091],[11.8068,59.29359],[11.78396,59.36062],[11.70912,59.5],[18,59.5]]],[[[17.12452,57.31928],[17.09702,57.31737],[17.07553,57.30512],[17.042,57.2709],[17.06446,57.24189],[17.06625,57.22671],[17.05047,57.20116],[17.05079,57.19233],[17.04949,57.1883],[17.04567,57.18667],[17.03199,57.18317],[17.02817,57.18146],[17.02329,57.17219],[17.01922,57.15717],[17.01531,57.14794],[16.97348,57.10419],[16.96746,57.08959],[16.96062,57.06322],[16.94321,57.05183],[16.92091,57.04637],[16.89861,57.03807],[16.9048,57.02945],[16.91285,57.02351],[16.92286,57.01972],[16.93393,57.01756],[16.91407,57.00739],[16.89918,56.99641],[16.87127,56.96918],[16.87843,56.95637],[16.88453,56.93561],[16.88307,56.91625],[16.86785,56.9077],[16.85817,56.8968],[16.84181,56.84406],[16.83033,56.82583],[16.82781,56.82567],[16.78159,56.81061],[16.77508,56.80537],[16.76873,56.79678],[16.76442,56.78742],[16.76206,56.77766],[16.7614,56.76752],[16.75652,56.74746],[16.6985,56.64521],[16.68971,56.62543],[16.68629,56.60236],[16.68279,56.59349],[16.67433,56.58344],[16.66424,56.57534],[16.65594,56.57197],[16.64324,56.56843],[16.63697,56.55972],[16.63168,56.53783],[16.63152,56.53221],[16.63795,56.5292],[16.63844,56.52416],[16.63575,56.51919],[16.62713,56.50853],[16.62485,56.50365],[16.62281,56.48652],[16.61964,56.47533],[16.61402,56.46581],[16.59929,56.44741],[16.58611,56.42666],[16.57586,56.40575],[16.56959,56.38703],[16.56853,56.37906],[16.56959,56.35627],[16.56642,56.34614],[16.55226,56.3321],[16.54908,56.32217],[16.54119,56.30614],[16.4909,56.23957],[16.47267,56.22724],[16.45021,56.21866],[16.42848,56.21796],[16.41261,56.22932],[16.41049,56.23827],[16.41277,56.26118],[16.41261,56.27094],[16.39894,56.29825],[16.40724,56.31997],[16.40838,56.34463],[16.40577,56.38703],[16.41407,56.40278],[16.40797,56.4206],[16.39723,56.4396],[16.39145,56.45869],[16.39894,56.54466],[16.40211,56.55439],[16.41944,56.58564],[16.44256,56.60871],[16.44606,56.61665],[16.45281,56.63752],[16.62086,56.87226],[16.63787,56.88247],[16.65903,56.88654],[16.68971,56.88727],[16.71681,56.89183],[16.73129,56.904],[16.7483,56.94188],[16.79363,57.00385],[16.84555,57.05907],[16.88836,57.11823],[16.90602,57.19204],[16.90992,57.20222],[16.91928,57.20722],[16.94044,57.21284],[16.95387,57.22211],[16.95924,57.2307],[16.96209,57.28734],[16.96648,57.30459],[16.98854,57.31757],[17.01922,57.34455],[17.03582,57.35277],[17.05486,57.35822],[17.06528,57.35773],[17.0735,57.34321],[17.08188,57.34138],[17.09108,57.34447],[17.09718,57.35277],[17.10402,57.35277],[17.10426,57.34829],[17.10613,57.34561],[17.10857,57.34321],[17.11085,57.33979],[17.11573,57.33535],[17.1198,57.33051],[17.12281,57.32518],[17.12452,57.31928]]],[[[11.73878,58.05854],[11.73846,58.04149],[11.74049,58.03559],[11.74562,58.0312],[11.73561,58.0034],[11.73194,57.99771],[11.71941,57.99217],[11.71022,57.99291],[11.7068,57.9995],[11.71144,58.01138],[11.69508,58.01508],[11.67937,58.00625],[11.66765,57.99038],[11.65943,57.96328],[11.65065,57.95539],[11.63942,57.95136],[11.61891,57.95425],[11.6111,57.94843],[11.60369,57.94062],[11.59474,57.93561],[11.58107,57.93586],[11.57228,57.94025],[11.56609,57.94587],[11.56007,57.94929],[11.5337,57.95067],[11.52784,57.95429],[11.52589,57.96662],[11.52272,57.97504],[11.51645,57.98383],[11.51246,57.99262],[11.51564,58.0008],[11.52703,58.00532],[11.55486,58.00239],[11.56756,58.00389],[11.54713,58.01],[11.52426,58.00996],[11.50563,58.01301],[11.4979,58.02806],[11.50587,58.04605],[11.52475,58.05073],[11.56756,58.04548],[11.65968,58.04548],[11.68149,58.05024],[11.69899,58.05915],[11.71656,58.06452],[11.73878,58.05854]]],[[[11.80698,58.23041],[11.81373,58.21137],[11.81528,58.18928],[11.81381,58.14448],[11.8047,58.12572],[11.78273,58.12031],[11.75668,58.11831],[11.70818,58.09821],[11.65463,58.10798],[11.62892,58.10008],[11.61232,58.1186],[11.5853,58.12311],[11.55649,58.11787],[11.53395,58.10688],[11.52369,58.09667],[11.51987,58.08955],[11.51629,58.08601],[11.50603,58.08641],[11.49562,58.08991],[11.46388,58.10688],[11.46388,58.07217],[11.45769,58.07217],[11.45118,58.09707],[11.44744,58.10346],[11.41603,58.1225],[11.40659,58.13109],[11.40887,58.1457],[11.42897,58.16096],[11.52784,58.2128],[11.56267,58.21955],[11.58823,58.2329],[11.60157,58.23725],[11.61842,58.23762],[11.64796,58.23404],[11.6631,58.23725],[11.65854,58.24811],[11.66,58.25812],[11.66676,58.2663],[11.67742,58.27139],[11.6727,58.2812],[11.66993,58.2851],[11.68637,58.29121],[11.70346,58.29125],[11.73878,58.2851],[11.74985,58.26289],[11.76857,58.25365],[11.7894,58.24641],[11.80698,58.23041]]],[[[15.70533,56.1164],[15.71778,56.1166],[15.7269,56.11835],[15.72584,56.11298],[15.71437,56.107],[15.70086,56.10566],[15.6985,56.10053],[15.7033,56.08942],[15.70362,56.08072],[15.70216,56.07673],[15.69679,56.07429],[15.68767,56.07461],[15.68328,56.07539],[15.65113,56.08999],[15.64235,56.10464],[15.65496,56.11945],[15.66912,56.12393],[15.6753,56.1201],[15.68336,56.1175],[15.69353,56.11758],[15.70533,56.1164]]],[[[16.86671,58.30459],[16.87729,58.29971],[16.88063,58.29328],[16.87908,58.28059],[16.86818,58.27265],[16.85581,58.27188],[16.84742,58.27546],[16.83644,58.29051],[16.83253,58.30419],[16.8449,58.31037],[16.86671,58.30459]]],[[[16.89161,58.33373],[16.91049,58.33832],[16.91896,58.33637],[16.91529,58.33503],[16.91326,58.33478],[16.90838,58.32941],[16.90496,58.32632],[16.89503,58.32071],[16.88185,58.31713],[16.86525,58.31672],[16.84604,58.31981],[16.8274,58.32754],[16.81495,58.33918],[16.80942,58.34846],[16.80421,58.35301],[16.80014,58.3583],[16.80152,58.36481],[16.7964,58.37141],[16.78517,58.38007],[16.79005,58.38907],[16.80779,58.39423],[16.81674,58.39558],[16.82976,58.39948],[16.8366,58.40046],[16.84067,58.39908],[16.85377,58.402],[16.85971,58.4003],[16.86427,58.39769],[16.86158,58.392],[16.85125,58.38337],[16.84002,58.38036],[16.82879,58.38154],[16.84718,58.37214],[16.84539,58.3688],[16.83383,58.36888],[16.82749,58.36359],[16.83058,58.35594],[16.84604,58.34536],[16.87029,58.33324],[16.89161,58.33373]]],[[[17.70729,58.99335],[17.70249,58.98481],[17.70021,58.97675],[17.70362,58.96532],[17.70411,58.95527],[17.70004,58.94538],[17.69711,58.93549],[17.69435,58.92862],[17.68751,58.92479],[17.68068,58.92182],[17.68263,58.91425],[17.69117,58.9018],[17.68483,58.90082],[17.65773,58.92268],[17.65707,58.91779],[17.64812,58.91893],[17.63917,58.93098],[17.64064,58.94766],[17.63396,58.95624],[17.62582,58.95677],[17.62428,58.96394],[17.6268,58.98139],[17.6364,58.99775],[17.64601,59.00947],[17.64812,59.01752],[17.64617,59.02342],[17.64682,59.03384],[17.64389,59.06135],[17.65219,59.07152],[17.6631,59.07197],[17.6657,59.06477],[17.66896,59.05891],[17.67303,59.0576],[17.67758,59.05659],[17.6867,59.05036],[17.6941,59.03897],[17.70094,59.02485],[17.70631,59.00837],[17.70729,58.99335]]]]}},{"type":"Feature","properties":{"navn":"Polen"},"geometry":{"type":"MultiPolygon","coordinates":[[[[14.6309,52.5],[14.62767,52.50742],[14.60906,52.5178],[14.61681,52.54103],[14.64482,52.57692],[14.61371,52.59253],[14.60797,52.59646],[14.54994,52.63619],[14.4901,52.65064],[14.46137,52.67456],[14.44235,52.67996],[14.43192,52.68609],[14.39771,52.72712],[14.3822,52.73815],[14.27596,52.78572],[14.24867,52.79458],[14.21601,52.81799],[14.19596,52.82337],[14.17374,52.82435],[14.15276,52.82833],[14.1354,52.8366],[14.12392,52.85065],[14.15049,52.86463],[14.16082,52.87675],[14.16495,52.89566],[14.16268,52.90817],[14.15049,52.94364],[14.14449,52.95369],[14.14449,52.95992],[14.19286,52.98165],[14.25373,53.00088],[14.31265,53.02922],[14.34334,53.04862],[14.35678,53.06668],[14.35957,53.07506],[14.38954,53.13167],[14.38747,53.14614],[14.38148,53.1603],[14.37786,53.17655],[14.38065,53.18986],[14.38778,53.20208],[14.39771,53.21099],[14.40825,53.2144],[14.41559,53.22099],[14.44163,53.25184],[14.42861,53.25908],[14.42468,53.26466],[14.40938,53.27243],[14.40329,53.27879],[14.40019,53.28861],[14.39957,53.30675],[14.39802,53.31522],[14.39126,53.33402],[14.37032,53.3923],[14.35988,53.44408],[14.3389,53.46521],[14.32846,53.48609],[14.30417,53.50852],[14.29694,53.52914],[14.29621,53.55131],[14.2989,53.58789],[14.29704,53.59776],[14.27606,53.63662],[14.26097,53.65621],[14.2651,53.67176],[14.26386,53.69988],[14.2639,53.69998],[14.27369,53.70063],[14.29168,53.70527],[14.30486,53.71255],[14.30616,53.72069],[14.28859,53.72797],[14.29835,53.73143],[14.30161,53.73485],[14.29835,53.73827],[14.28859,53.74165],[14.2942,53.74909],[14.30405,53.74388],[14.31804,53.73973],[14.33041,53.7342],[14.34205,53.71491],[14.35621,53.70844],[14.38356,53.70063],[14.40358,53.68781],[14.41456,53.68236],[14.45867,53.67788],[14.51238,53.66645],[14.53102,53.65778],[14.54624,53.64476],[14.57911,53.60725],[14.59059,53.59838],[14.59588,53.6013],[14.59702,53.61734],[14.60157,53.62665],[14.61004,53.63276],[14.62379,53.63923],[14.62306,53.64301],[14.62281,53.64696],[14.62379,53.65282],[14.61305,53.65469],[14.58741,53.65607],[14.57594,53.65965],[14.54493,53.70405],[14.55144,53.72614],[14.57594,53.76952],[14.58741,53.7635],[14.59734,53.7652],[14.60825,53.76903],[14.62379,53.76952],[14.61671,53.79475],[14.62037,53.81485],[14.62729,53.83271],[14.63063,53.85151],[14.62379,53.85151],[14.62135,53.83955],[14.61354,53.83161],[14.58961,53.81733],[14.59588,53.81049],[14.58709,53.81265],[14.58009,53.81533],[14.57447,53.81908],[14.5691,53.82416],[14.57423,53.82709],[14.58326,53.83422],[14.58961,53.83784],[14.57586,53.8548],[14.55209,53.86278],[14.44117,53.86962],[14.42555,53.87983],[14.43816,53.89932],[14.43491,53.90131],[14.43409,53.9016],[14.43377,53.90241],[14.4319,53.90616],[14.42205,53.89615],[14.41424,53.89472],[14.40577,53.89741],[14.39381,53.89932],[14.3851,53.89728],[14.37827,53.89232],[14.37159,53.88589],[14.36305,53.87938],[14.39291,53.87596],[14.40919,53.87157],[14.41765,53.86514],[14.4157,53.85301],[14.40528,53.84418],[14.39259,53.84073],[14.38356,53.84467],[14.35621,53.83446],[14.34262,53.83186],[14.3283,53.831],[14.3283,53.82416],[14.34205,53.82099],[14.34132,53.81892],[14.3283,53.81733],[14.31886,53.81818],[14.30307,53.82307],[14.29135,53.82416],[14.27467,53.8308],[14.22657,53.87198],[14.20314,53.87832],[14.20082,53.87816],[14.19276,53.89377],[14.17529,53.90648],[14.1848,53.90813],[14.19307,53.91149],[14.21005,53.93846],[14.22657,53.93403],[14.23748,53.92866],[14.26808,53.92182],[14.36704,53.91698],[14.40675,53.92182],[14.44557,53.93403],[14.51735,53.96524],[14.78191,54.03461],[15.0101,54.06981],[15.28834,54.13886],[15.46852,54.16714],[15.66578,54.19843],[15.85971,54.24999],[16.02084,54.26179],[16.13152,54.28352],[16.11891,54.27603],[16.06935,54.26301],[16.09108,54.25397],[16.17921,54.26301],[16.17921,54.26919],[16.17237,54.26919],[16.17237,54.2766],[16.22006,54.2766],[16.21957,54.28148],[16.21852,54.28238],[16.21665,54.28205],[16.21323,54.28352],[16.21518,54.29963],[16.19215,54.30028],[16.13771,54.29027],[16.17213,54.30024],[16.21355,54.31611],[16.2754,54.35859],[16.26287,54.3437],[16.24049,54.33002],[16.23178,54.32258],[16.2409,54.32453],[16.25904,54.32673],[16.27491,54.33047],[16.28883,54.34024],[16.3239,54.34992],[16.33676,54.35859],[16.32488,54.37311],[16.30502,54.37348],[16.29624,54.36726],[16.28159,54.35859],[16.32399,54.40131],[16.43979,54.48827],[16.43979,54.48212],[16.43442,54.47236],[16.44451,54.46988],[16.46062,54.47346],[16.4734,54.48212],[16.47975,54.49555],[16.47389,54.49966],[16.46095,54.49649],[16.44606,54.48827],[16.46656,54.51215],[16.50131,54.53242],[16.56959,54.5572],[16.77849,54.57514],[16.85963,54.59394],[16.90219,54.59813],[16.93995,54.60602],[17.03582,54.66706],[17.33741,54.74901],[17.71567,54.79043],[17.88543,54.82412],[18,54.83022],[18,52.5],[14.6309,52.5]]]]}}]}